{
  "version": 0.6,
  "generator": "Overpass API 0.7.62.8 e802775f",
  "osm3s": {
    "timestamp_osm_base": "2025-10-31T03:36:16Z",
    "timestamp_areas_base": "2025-10-31T01:44:52Z",
    "copyright": "The data included in this document is from www.openstreetmap.org. The data is made available under ODbL."
  },
  "elements": [

{
  "type": "node",
  "id": 445345255,
  "lat": 21.0343278,
  "lon": 105.8504388,
  "tags": {
    "addr:city": "Hà Nội",
    "addr:country": "VN",
    "addr:housenumber": "48",
    "addr:street": "Hàng Ngang",
    "name": "Nhà 48 phố Hàng Ngang",
    "name:en": "House number 48 Hang Ngang Street",
    "name:zh": "48号横行街民居",
    "tourism": "attraction",
    "wikidata": "Q10800786",
    "wikipedia": "vi:Nhà 48 Hàng Ngang"
  }
},
{
  "type": "node",
  "id": 991996791,
  "lat": 22.3285327,
  "lon": 103.8346798,
  "tags": {
    "name": "Cát Cát",
    "name:en": "Cat Cat Village",
    "name:ko": "깟깟",
    "place": "hamlet",
    "tourism": "attraction",
    "wikidata": "Q10743160"
  }
},
{
  "type": "node",
  "id": 1036552571,
  "lat": 16.1874495,
  "lon": 108.1307217,
  "tags": {
    "ele": "496",
    "mountain_pass": "yes",
    "name": "Đèo Hải Vân",
    "name:de": "Wolkenpass",
    "name:en": "Van Hoi Pass",
    "name:fr": "Col des nuages",
    "name:ko": "하이반 고개",
    "tourism": "attraction",
    "wikidata": "Q1477078",
    "wikipedia": "vi:Đèo Hải Vân",
    "wikipedia:en": "Hải Vân Pass"
  }
},
{
  "type": "node",
  "id": 1534828632,
  "lat": 13.7862534,
  "lon": 109.2110825,
  "tags": {
    "alt_name:en": "Twin Towers",
    "historic": "ruins",
    "name": "Tháp Đôi",
    "name:en": "Doi Cham Towers",
    "name:ru": "Башни Тап Дой",
    "wikidata": "Q10825860"
  }
},
{
  "type": "node",
  "id": 1650640830,
  "lat": 10.0433355,
  "lon": 104.0187062,
  "tags": {
    "historic": "military",
    "name": "Nhà Tù Phú Quốc",
    "name:de": "Coconut Prison",
    "opening_hours": "Mo-Su 07:00-11:00, 13:00-17:00",
    "tourism": "museum",
    "wheelchair": "limited",
    "wikidata": "Q10800918",
    "wikimedia_commons": "Category:Phu Quoc Prison",
    "wikipedia": "en:Phú Quốc Prison"
  }
},
{
  "type": "node",
  "id": 2088919716,
  "lat": 15.7631550,
  "lon": 108.1239032,
  "tags": {
    "historic": "ruins",
    "name": "B1",
    "wikidata": "Q132457049"
  }
},
{
  "type": "node",
  "id": 2088919719,
  "lat": 15.7629699,
  "lon": 108.1239664,
  "tags": {
    "historic": "ruins",
    "name": "B4",
    "wikidata": "Q132456988"
  }
},
{
  "type": "node",
  "id": 2088919732,
  "lat": 15.7646482,
  "lon": 108.1252246,
  "tags": {
    "historic": "ruins",
    "name": "E4",
    "wikidata": "Q132457205"
  }
},
{
  "type": "node",
  "id": 2088919734,
  "lat": 15.7650165,
  "lon": 108.1249809,
  "tags": {
    "historic": "ruins",
    "name": "F2",
    "wikidata": "Q132457217"
  }
},
{
  "type": "node",
  "id": 2088919735,
  "lat": 15.7633613,
  "lon": 108.1251533,
  "tags": {
    "historic": "ruins",
    "image": "https://upload.wikimedia.org/wikipedia/commons/1/1c/2024_-_M%E1%BB%B9_S%C6%A1n_Group_G_-_img_04.jpg",
    "name": "G2",
    "wikidata": "Q132457136"
  }
},
{
  "type": "node",
  "id": 2617007574,
  "lat": 15.8772786,
  "lon": 108.3277903,
  "tags": {
    "alt_name:pl": "Pomnik Kazimierza Kwiatkowskiego",
    "historic": "monument",
    "name": "Kazimierz Kwiatkowski",
    "name:ko": "카지미에시 크비아트코브스키 기념물",
    "website": "https://vi.m.wikipedia.org/wiki/Kazimierz_Kwiatkowski",
    "wikidata": "Q11738068",
    "wikipedia": "en:Kazimierz Kwiatkowski (architect)"
  }
},
{
  "type": "node",
  "id": 2706917665,
  "lat": 11.8235094,
  "lon": 108.3349037,
  "tags": {
    "alt_name": "Thác Liêng Rơwoa",
    "name": "Thác Voi",
    "tourism": "attraction",
    "waterway": "waterfall",
    "wikidata": "Q10825676"
  }
},
{
  "type": "node",
  "id": 2707025319,
  "lat": 20.9084384,
  "lon": 107.0682782,
  "tags": {
    "landmark": "2",
    "name": "Vịnh Hạ Long",
    "name:de": "Halong-Bucht",
    "name:en": "Hạ Long Bay",
    "name:es": "Bahía de Ha Long",
    "name:fr": "Baie de Hạ Long",
    "name:id": "Teluk Ha Long",
    "name:ja": "ハロン湾",
    "name:zh": "下龙湾",
    "natural": "bay",
    "tourism": "attraction",
    "wikidata": "Q190128",
    "wikipedia": "vi:Vịnh Hạ Long",
    "wikivoyage": "vi:Vịnh Hạ Long"
  }
},
{
  "type": "node",
  "id": 4096525696,
  "lat": 11.8765192,
  "lon": 108.4701041,
  "tags": {
    "name": "Thác Prenn",
    "name:en": "Prenn Falls",
    "name:ko": "프렌 폭포",
    "source": "Bing",
    "tourism": "attraction",
    "waterway": "waterfall",
    "wikidata": "Q10825669",
    "wikipedia": "ko:프렌 폭포"
  }
},
{
  "type": "node",
  "id": 4293357289,
  "lat": 10.6769399,
  "lon": 105.0766657,
  "tags": {
    "ele": "284",
    "name": "Núi Sam",
    "name:en": "Mount Sam",
    "name:zh": "衫山",
    "natural": "peak",
    "tourism": "attraction",
    "wikidata": "Q10802044",
    "wikimedia_commons": "Category:Mount Sam",
    "wikipedia": "vi:Núi Sam"
  }
},
{
  "type": "node",
  "id": 4524518293,
  "lat": 13.9287149,
  "lon": 109.0751200,
  "tags": {
    "historic": "ruins",
    "name": "Tháp Cánh Tiên",
    "name:de": "Thap Canh Tien",
    "opening_hours": "Mo-Su 07:30-11:00, 14:00-16:30",
    "wikidata": "Q10825837"
  }
},
{
  "type": "node",
  "id": 4524518294,
  "lat": 13.8990322,
  "lon": 108.9913034,
  "tags": {
    "historic": "ruins",
    "name": "Tháp Thủ Thiện",
    "name:en": "Thu Thien Cham Tower",
    "name:vi": "Tháp Thủ Thiện",
    "wikidata": "Q10825854"
  }
},
{
  "type": "node",
  "id": 4524565893,
  "lat": 13.9546021,
  "lon": 109.0895925,
  "tags": {
    "alt_name": "Tháp Phốc Lốc",
    "historic": "ruins",
    "historic:civilization": "champa",
    "name": "Tháp Phú Lốc",
    "name:en": "Phu Loc Cham Tower",
    "ruins": "tower",
    "wikidata": "Q10825851",
    "wikipedia": "vi:Tháp Phú Lốc"
  }
},
{
  "type": "node",
  "id": 4708186090,
  "lat": 10.5569440,
  "lon": 107.2222200,
  "tags": {
    "abandoned": "yes",
    "description": "Nui Dat (Núi Đất) is a former 1st Australian Task Force (1 ATF) base now part of Ba Ria city in Ba Ria–Vung Tau province, Vietnam. In 1966, when the area was part of the then Phuoc Tuy Province it was the location of a prominent 1 ATF military base.",
    "historic": "ruins",
    "military": "base",
    "name": "Nui dat",
    "name:vi": "Núi Đất",
    "wikidata": "Q7068799",
    "wikipedia": "en:Nui Dat"
  }
},
{
  "type": "node",
  "id": 5182931945,
  "lat": 16.4689726,
  "lon": 107.5781266,
  "tags": {
    "addr:city": "Huế",
    "addr:country": "VN",
    "addr:province": "Thừa Thiên - Huế",
    "addr:street": "23 Tháng 8",
    "alt_name": "Đại Nội",
    "alt_name:en": "Hue Citadel",
    "alt_name:vi": "Đại Nội",
    "alt_name:zh": "顺化皇城",
    "heritage:operator": "whc",
    "historic": "castle",
    "is_in:city": "Huế",
    "is_in:country": "Việt Nam",
    "is_in:iso_3166_2": "VN-26",
    "name": "Hoàng Thành Huế",
    "name:de": "Kaiserstadt",
    "name:en": "Imperial Citadel",
    "name:fr": "Cité Impériale d’Hue",
    "name:id": "Kota Kerajaan Hue",
    "name:ja": "フエ王宮",
    "name:ko": "후에 황성",
    "name:ru": "Императорская цитадель",
    "name:vi": "Hoàng Thành",
    "name:zh": "順化皇城",
    "name:zh-Hant": "順化皇城",
    "opening_hours": "Mo-Sa 07:30-17:30; Su 06:30-17:30",
    "ref:whc": "678-001",
    "tourism": "museum",
    "whc:criteria": "(iv)",
    "whc:inscription_date": "1993",
    "wikidata": "Q10769129",
    "wikipedia": "vi:Hoàng thành Huế"
  }
},
{
  "type": "node",
  "id": 5437425449,
  "lat": 10.5530051,
  "lon": 107.2654502,
  "tags": {
    "alt_name": "Memorial to Long Tan Battle",
    "description": "A memorial to the Battle of Long Tan that took place in a rubber plantation near Long Tan on 18 August 1966. This is a replica of the original cross.",
    "historic": "memorial",
    "memorial": "war_memorial",
    "name": "Long Tan Cross",
    "name:en": "Long Tan Cross",
    "name:vi": "Thập tự giá Long Tân",
    "name:zh": "隆新十字",
    "wikidata": "Q6673286",
    "wikimedia_commons": "Category:Long Tan Cross",
    "wikipedia": "en:Long Tan Cross"
  }
},
{
  "type": "node",
  "id": 6114438287,
  "lat": 16.3989537,
  "lon": 107.5902801,
  "tags": {
    "addr:postcode": "530000",
    "addr:street": "Khải Định, Thủy Bằng, Hương Thủy",
    "amenity": "place_of_worship",
    "historic": "monument",
    "name": "Khai Dinh",
    "name:de": "Königsgrab Khai Dinh",
    "name:en": "Royal Tomb of Khai Dinh",
    "name:es": "Tumba Real de Khai Dinh",
    "name:ru": "Гробница Кхай Диня",
    "opening_hours": "Mo-Su 07:00-17:30",
    "phone": "+84 234 3865 830",
    "tourism": "attraction",
    "wikidata": "Q7818621"
  }
},
{
  "type": "node",
  "id": 7060605287,
  "lat": 20.2078516,
  "lon": 105.7633634,
  "tags": {
    "addr:district": "Nho Quan",
    "addr:postcode": "430000",
    "addr:province": "Ninh Binh",
    "addr:subdistrict": "Ky Phu",
    "conservation center": "wildlife_park",
    "fee": "no",
    "name": "CƠ SỞ BẢO TỒN GẤU Ninh Bình",
    "name:en": "BEAR SANCTUARY Ninh Binh",
    "opening_hours": "Mo-Su 09:00-17:00",
    "tourism": "attraction",
    "wikidata": "Q63559191",
    "wikipedia": "en:Bear Sanctuary Ninh Binh"
  }
},
{
  "type": "node",
  "id": 7526654986,
  "lat": 13.8903040,
  "lon": 109.1854851,
  "tags": {
    "historic": "ruins",
    "name": "Tháp Bình Lâm",
    "name:en": "Binh Lam Cham Tower",
    "ruins": "temple",
    "wikidata": "Q10825827",
    "wikimedia_commons": "File:Tháp Bình Lâm, Tuy Phong, Bình Định.JPG"
  }
},
{
  "type": "node",
  "id": 9959187017,
  "lat": 20.2538566,
  "lon": 106.4115860,
  "tags": {
    "alt_name": "Làng nước mắm Sa Châu",
    "name": "Sa Châu",
    "place": "hamlet",
    "product": "fish_sauce",
    "tourism": "attraction",
    "wikidata": "Q117229618"
  }
},
{
  "type": "node",
  "id": 10635540903,
  "lat": 20.8590207,
  "lon": 107.0809085,
  "tags": {
    "historic": "memorial",
    "memorial": "bust",
    "name": "G. X. Ti Tốp",
    "name:ru": "Г.С. Титову",
    "tourism": "artwork",
    "wikidata": "Q107028423",
    "wikipedia": "ru:Памятник Герману Титову (Вьетнам)"
  }
},
{
  "type": "node",
  "id": 10709724109,
  "lat": 21.1498628,
  "lon": 106.2554963,
  "tags": {
    "addr:city": "Bắc Ninh",
    "addr:district": "Thị xã Quế Võ",
    "addr:province": "Bac Ninh",
    "addr:subdistrict": "Xã Phù Lãng",
    "name": "Làng gốm Phù Lãng",
    "name:en": "Phu Lang pottery village",
    "tourism": "attraction",
    "wikidata": "Q10787425",
    "wikipedia": "vi:Làng gốm Phù Lãng"
  }
},
{
  "type": "node",
  "id": 13038535919,
  "lat": 18.6706824,
  "lon": 105.6694746,
  "tags": {
    "historic": "castle",
    "name": "Thành cổ Vinh",
    "name:en": "Old Citadel of Vinh",
    "tourism": "attraction",
    "wikidata": "Q109430586",
    "wikipedia": "vi:Thành Nghệ An"
  }
},
{
  "type": "node",
  "id": 13162197540,
  "lat": 22.7782145,
  "lon": 106.3112857,
  "tags": {
    "alt_name": "Núi Mắt Thần",
    "name": "Núi Thủng",
    "name:tyz": "Phja Piót",
    "natural": "peak",
    "tourism": "attraction",
    "wikidata": "Q117212825",
    "wikipedia": "vi:Núi Thủng"
  }
},
{
  "type": "node",
  "id": 13260659280,
  "lat": 15.1779549,
  "lon": 108.8727042,
  "tags": {
    "historic": "memorial",
    "material": "concrete",
    "memorial": "statue",
    "name": "Sơn Mỹ Memorial",
    "wikidata": "Q6983802",
    "wikipedia": "en:Sơn Mỹ Memorial"
  }
},
{
  "type": "way",
  "id": 9566542,
  "center": {
    "lat": 21.0307813,
    "lon": 105.8527835
  },
  "nodes": [
    1893253381,
    1893253440
  ],
  "tags": {
    "bridge": "yes",
    "highway": "footway",
    "layer": "1",
    "lit": "yes",
    "material": "wood",
    "name": "Cầu Thê Húc",
    "name:de": "Rote Brücke",
    "name:en": "The Huc Bridge",
    "name:es": "Puente Rojo",
    "name:fr": "Pont rouge",
    "name:id": "Jambatan The Huc",
    "name:ko": "테훅교",
    "name:ru": "Мост Восходящего солнца",
    "name:vi": "Cầu Thê Húc",
    "name:zh": "棲旭橋",
    "name:zh-Hans": "栖旭桥",
    "name:zh-Hant": "棲旭橋",
    "smoothness": "excellent",
    "surface": "paving_stones",
    "tourism": "attraction",
    "wheelchair": "yes",
    "wikidata": "Q10752403",
    "wikipedia": "vi:Cầu Thê Húc"
  }
},
{
  "type": "way",
  "id": 28945667,
  "center": {
    "lat": 21.0307413,
    "lon": 105.8066400
  },
  "nodes": [
    318248424,
    12174479712,
    318248426,
    8712171689,
    12174479717,
    318248428,
    11941106523,
    318248429,
    11941106521,
    318248432,
    318248438,
    12492157857,
    12492157856,
    318248439,
    318248443,
    318248445,
    318248446,
    318248448,
    318248450,
    318248451,
    318248452,
    318248453,
    318248455,
    318248456,
    11593219531,
    12492157850,
    12492157849,
    318248457,
    12196501158,
    12196501157,
    12196501156,
    12492157847,
    318248468,
    318248475,
    2195296720,
    2195296701,
    318248477,
    12492157846,
    318248482,
    318248484,
    318248486,
    12174413412,
    318248487,
    318248488,
    318248491,
    318248495,
    12196479398,
    12196479396,
    318248499,
    12174479637,
    318248503,
    12174479632,
    10717300933,
    10717300936,
    12174378934,
    318248510,
    318248511,
    318248516,
    12174378930,
    318248518,
    318248519,
    12174479605,
    318248523,
    11593219479,
    318248424
  ],
  "tags": {
    "addr:city": "Hà Nội",
    "addr:country": "VN",
    "addr:district": "Ba Đình",
    "addr:province": "Hà Nội",
    "addr:street": "Đường Bưởi",
    "addr:subdistrict": "Ngọc Khánh",
    "charge": "50000 VND",
    "fee": "yes",
    "name": "Công viên Thủ Lệ",
    "name:en": "Thu Le Park",
    "name:ru": "Парк Тху-Ле",
    "official_name": "Vườn thú Hà Nội",
    "official_name:en": "Hanoi Zoo",
    "opening_hours": "Mo-Su 06:00-18:00",
    "operator": "Công ty TNHH MTV Vườn thú Hà Nội",
    "operator:type": "public/government",
    "toilets": "yes",
    "tourism": "zoo",
    "website": "http://hanoizoo.com/",
    "wikidata": "Q944021",
    "wikimedia_commons": "Category:Thủ Lệ Park",
    "wikipedia": "vi:Công viên Thủ Lệ"
  }
},
{
  "type": "way",
  "id": 32735046,
  "center": {
    "lat": 10.7643335,
    "lon": 106.6385329
  },
  "nodes": [
    12383570737,
    12383570738,
    12383570736,
    12383570739,
    12383570740,
    12383570741,
    12383570790,
    12383570788,
    12383570787,
    12383570789,
    12383570786,
    12383570783,
    12383570782,
    12383570781,
    12383570785,
    12383570780,
    12383570779,
    12383570778,
    12383570784,
    12383570777,
    12383570775,
    12383570776,
    12383570774,
    12383570773,
    12383570772,
    12383570745,
    12383570742,
    12383570743,
    12383570746,
    12383570744,
    12383570747,
    12383570749,
    12383570748,
    12383570750,
    12383570751,
    12383570753,
    12383570752,
    12383570756,
    12383570754,
    12383570757,
    12383570755,
    12383570758,
    12383570763,
    12383570759,
    12383570760,
    12383570764,
    12383570761,
    12383570762,
    12383570765,
    12383570769,
    12383570766,
    12383570767,
    12383570770,
    12383570768,
    12383570771,
    1396624946,
    1396624953,
    1396624951,
    13195868155,
    1396624952,
    13195868156,
    13195868157,
    11301681034,
    11301681035,
    12383570735,
    11301681036,
    11301681037,
    1396624954,
    11301681017,
    1396624955,
    11301681016,
    368336125,
    11301681015,
    10131967874,
    11301681011,
    11301681012,
    368336115,
    11301681013,
    11301681014,
    368336109,
    368336101,
    368336090,
    368336077,
    11301681021,
    4563599807,
    368336069,
    3806809878,
    11301681038,
    368336063,
    3806809908,
    3806809919,
    3806809923,
    11301681039,
    368336059,
    3806809974,
    11301681019,
    3806809994,
    3806810007,
    11301681044,
    3806810035,
    11301681029,
    8591764611,
    8591764613,
    3806810111,
    3806809696,
    3806810105,
    368336344,
    3806810090,
    368336346,
    5817151154,
    4538876529,
    368336339,
    11301681031,
    10131967869,
    368336341,
    368336333,
    368336337,
    11301681033,
    368336328,
    3700972639,
    3700972641,
    3806809695,
    368336330,
    4563599761,
    4563599760,
    4563599759,
    368336319,
    368336492,
    10131967902,
    368335970,
    1396624959,
    1396624958,
    1396624957,
    10131967899,
    368335936,
    12383570805,
    12383570804,
    12383570803,
    12383570802,
    12383570799,
    12383570798,
    12383570801,
    12383570797,
    12383570796,
    12383570800,
    12383570795,
    12383570792,
    12383570794,
    12383570791,
    12383570793,
    12383570704,
    12383570737
  ],
  "tags": {
    "name": "Công viên Văn hóa Đầm Sen",
    "opening_hours": "Mo,We-Sa 09:00-17:00; PH,Su 08:30-18:00; Tu closed",
    "tourism": "theme_park",
    "wikidata": "Q2056423",
    "wikimedia_commons": "Category:Dam Sen Cultural Park",
    "wikipedia": "en:Đầm Sen Park"
  }
},
{
  "type": "way",
  "id": 37625751,
  "center": {
    "lat": 21.0367617,
    "lon": 105.8346919
  },
  "nodes": [
    441048033,
    441048034,
    441048035,
    6549314176,
    441048036,
    441048037,
    6899326685,
    11296032436,
    11296032383,
    441048039,
    11296032426,
    6549313913,
    11296032427,
    441048040,
    11296032385,
    11245455283,
    441048033
  ],
  "tags": {
    "addr:city": "Hà Nội",
    "addr:country": "VN",
    "addr:district": "Quận Ba Đình",
    "addr:housenumber": "1",
    "addr:postcode": "100000",
    "addr:province": "Hà Nội",
    "addr:street": "Đường Hùng Vương",
    "addr:subdistrict": "Phường Điện Biên",
    "alt_name": "Lăng Bác",
    "alt_name:vi": "Lăng Bác",
    "building": "yes",
    "building:colour": "#989993",
    "height": "7.8",
    "historic": "monument",
    "name": "Lăng Chủ tịch Hồ Chí Minh",
    "name:de": "Ho-Chi-Minh-Mausoleum",
    "name:en": "Ho Chi Minh Mausoleum",
    "name:fr": "Mausolée de Hô Chi Minh",
    "name:id": "Mausoleum Presiden Ho Chi Minh",
    "name:ja": "ホー・チ・ミン廟",
    "name:ko": "호찌민 묘소",
    "name:ru": "Мавзолей Хо Ши Мина",
    "name:tr": "Ho Chi Minh Anıt Mezarı",
    "name:uk": "Мавзолей Хо Ши Міна",
    "name:vi": "Lăng Chủ tịch Hồ Chí Minh",
    "name:vi-Hani": "陵主席胡志明",
    "name:zh": "胡志明紀念堂",
    "name:zh-Hans": "胡志明纪念堂",
    "name:zh-Hant": "胡志明紀念堂",
    "opening_hours": "Tu-Th 07:30-10:30; Sa,Su 07:30-11:00",
    "roof:colour": "#989993",
    "start_date": "1975-08-29",
    "tourism": "attraction",
    "wheelchair": "no",
    "wikidata": "Q874234",
    "wikimedia_commons": "Category:Ho Chi Minh Mausoleum",
    "wikipedia": "vi:Lăng Chủ tịch Hồ Chí Minh"
  }
},
{
  "type": "way",
  "id": 37629143,
  "center": {
    "lat": 21.0356178,
    "lon": 105.8326247
  },
  "nodes": [
    441102960,
    12086610367,
    441049599,
    441102964,
    12086605545,
    12093775441,
    12093775442,
    441102967,
    11959678853,
    12086605532,
    11959678855,
    441102971,
    12093775443,
    12093775444,
    12086605544,
    441102975,
    12086615769,
    12086610368,
    441102980,
    12093775445,
    12093775446,
    11959678859,
    441102982,
    12086610366,
    12086610365,
    441102985,
    11959678856,
    12093775440,
    12093775439,
    441102960
  ],
  "tags": {
    "addr:city": "Hà Nội",
    "addr:country": "VN",
    "addr:district": "Quận Ba Đình",
    "addr:housenumber": "19",
    "addr:province": "Hà Nội",
    "addr:street": "Phố Ngọc Hà",
    "addr:subdistrict": "Phường Ngọc Hà",
    "air_conditioning": "yes",
    "alt_name:ja": "ドラゴンハウス",
    "building": "museum",
    "building:levels": "3",
    "charge": "40000 VND",
    "contact:email": "truyenthong.bthcm@gmail.com",
    "contact:facebook": "https://www.facebook.com/HoChiMinhMuseum/",
    "contact:fax": "+84 24 3843 9837",
    "contact:phone": "+84 24 3845 5435",
    "contact:website": "https://baotanghochiminh.vn/",
    "fee": "yes",
    "height": "20",
    "museum": "history",
    "name": "Bảo tàng Hồ Chí Minh",
    "name:cy": "Amgueddfa Ho Chi Minh",
    "name:de": "Ho Chi Minh Museum",
    "name:en": "Ho Chi Minh Museum",
    "name:es": "Museo Ho Chi Minh",
    "name:fr": "Musée Ho Chi Minh",
    "name:id": "Muzium Ho Chi Minh",
    "name:ja": "ホー・チ・ミン博物館",
    "name:ko": "호찌민 박물관",
    "name:ms": "Muzium Ho Chi Minh",
    "name:nl": "Ho Chi Minh-museum",
    "name:ru": "Музей Хо Ши Мина",
    "name:tr": "Ho Chi Minh Müzesi",
    "name:vi": "Bảo tàng Hồ Chí Minh",
    "name:vi-Hani": "寶藏胡志明",
    "name:zh": "胡志明博物館",
    "name:zh-Hans": "胡志明博物馆",
    "name:zh-Hant": "胡志明博物館",
    "opening_hours": "Tu-Th 08:00-11:30; Sa-Su 14:00-16:30",
    "operator": "Bộ Văn hóa, Thể thao và Du lịch",
    "operator:type": "government",
    "start_date": "1990-05-19",
    "subject:wikidata": "Q36014",
    "toilets": "yes",
    "tourism": "museum",
    "wheelchair": "yes",
    "wikidata": "Q1055897",
    "wikimedia_commons": "Category:Ho Chi Minh Museum",
    "wikipedia": "vi:Bảo tàng Hồ Chí Minh"
  }
},
{
  "type": "way",
  "id": 37629570,
  "center": {
    "lat": 21.0393019,
    "lon": 105.8344412
  },
  "nodes": [
    441115275,
    441115300,
    441115307,
    12075334128,
    441115305,
    441115303,
    441115277,
    441115280,
    12075334112,
    441115289,
    441115293,
    6547823113,
    441115296,
    441115287,
    12075334105,
    441115284,
    12075334161,
    12075334139,
    12075334131,
    441115275
  ],
  "tags": {
    "alt_name:zh": "河内主席府",
    "alt_name:zh-Hans": "河内主席府",
    "alt_name:zh-Hant": "河內主席府",
    "building": "yes",
    "building:colour": "#E5B24F",
    "building:levels": "4",
    "castle_type": "stately",
    "government": "presidency",
    "historic": "castle",
    "name": "Phủ Chủ Tịch",
    "name:de": "Präsidentenpalast",
    "name:en": "Presidential Palace",
    "name:es": "Palacio Presidencial",
    "name:fr": "Palais Présidentiel",
    "name:id": "Istana kepresidenan",
    "name:ja": "国家主席官邸",
    "name:ko": "주석궁",
    "name:ru": "Президентский дворец",
    "name:vi": "Phủ Chủ Tịch",
    "name:vi-Hani": "府主席",
    "name:zh": "主席府",
    "old_name:fr": "Palais du Gouverneur-Générale de l'Indochine française",
    "old_name:vi": "Dinh Toàn quyền",
    "roof:colour": "#BF6236",
    "roof:shape": "gabled",
    "tourism": "attraction",
    "wikidata": "Q864758",
    "wikipedia": "vi:Phủ Chủ tịch"
  }
},
{
  "type": "way",
  "id": 37933050,
  "center": {
    "lat": 21.0241925,
    "lon": 105.8578230
  },
  "nodes": [
    445366811,
    8452422382,
    8452422383,
    8452422372,
    8452422374,
    8452422375,
    8452422373,
    445366814,
    8452422384,
    8452422386,
    8452422387,
    8452422385,
    445366815,
    8452422377,
    8452422379,
    8452422378,
    8452422376,
    8452422381,
    8452422380,
    8464054123,
    445366816,
    8464054121,
    8464054126,
    445366811
  ],
  "tags": {
    "addr:city": "Hà Nội",
    "addr:country": "VN",
    "addr:district": "Hoàn Kiếm",
    "addr:housenumber": "1A",
    "addr:province": "Hà Nội",
    "addr:street": "Phố Tràng Tiền",
    "addr:subdistrict": "Tràng Tiền",
    "amenity": "theatre",
    "building": "yes",
    "building:colour": "#FAEBBC",
    "building:levels": "4",
    "name": "Nhà hát Lớn",
    "name:de": "Oper",
    "name:en": "Opera House",
    "name:es": "Opera de Hanoi",
    "name:fr": "Opéra de Hanoi",
    "name:id": "Rumah Opera Hanoi",
    "name:ko": "하노이 오페라 하우스",
    "name:ru": "Ханойский оперный театр",
    "name:vi": "Nhà hát Lớn",
    "name:zh": "河內大劇院",
    "official_name": "Nhà hát Lớn Hà Nội",
    "official_name:en": "Hanoi Opera House",
    "official_name:vi": "Nhà hát Lớn Hà Nội",
    "roof:colour": "#A47355",
    "tourism": "attraction",
    "wikidata": "Q1186043",
    "wikimedia_commons": "Category:Hanoi Opera House",
    "wikipedia": "vi:Nhà hát Lớn Hà Nội"
  }
},
{
  "type": "way",
  "id": 37933256,
  "center": {
    "lat": 21.0242432,
    "lon": 105.8597158
  },
  "nodes": [
    445371191,
    445371192,
    445371194,
    445371195,
    12069455639,
    445371196,
    445371200,
    12069455640,
    445371198,
    445371191
  ],
  "tags": {
    "addr:city": "Hà Nội",
    "addr:country": "VN",
    "addr:district": "Hoàn Kiếm",
    "addr:housenumber": "1",
    "addr:province": "Hà Nội",
    "addr:street": "Phố Tràng Tiền",
    "addr:subdistrict": "Phan Chu Trinh",
    "landuse": "commercial",
    "name": "Bảo tàng Lịch sử Quốc gia Việt Nam",
    "name:en": "National Museum of Vietnamese History",
    "name:fr": "Musée national d'histoire vietnamienne",
    "name:id": "Muzium Sejarah Vietnam",
    "name:ja": "ベトナム歴史博物館",
    "name:vi": "Viện Bảo tàng Lịch sử Việt Nam",
    "name:vi-Hani": "院寶藏歷史越南",
    "name:zh": "越南历史博物馆",
    "name:zh-Hans": "越南历史博物馆",
    "name:zh-Hant": "越南歷史博物館",
    "opening_hours": "Mo-Su 08:00-12:00, 13:30-17:00",
    "tourism": "museum",
    "wikidata": "Q5370414",
    "wikimedia_commons": "Category:National Museum of Vietnamese History",
    "wikipedia": "vi:Bảo tàng Lịch sử Việt Nam"
  }
},
{
  "type": "way",
  "id": 37933258,
  "center": {
    "lat": 21.0253311,
    "lon": 105.8586174
  },
  "nodes": [
    445371216,
    445371217,
    11104306210,
    445371218,
    445371219,
    445371221,
    445371216
  ],
  "tags": {
    "addr:city": "Hà Nội",
    "addr:country": "VN",
    "addr:district": "Hoàn Kiếm",
    "addr:housenumber": "216",
    "addr:province": "Hà Nội",
    "addr:street": "Đường Trần Quang Khải",
    "addr:subdistrict": "Phan Chu Trinh",
    "landuse": "commercial",
    "name": "Bảo tàng Lịch sử Quốc gia Việt Nam",
    "name:en": "Vietnam Museum of Revolution",
    "name:vi": "Viện Bảo tàng Cách mạng Việt Nam",
    "name:vi-Hani": "院寶藏革命越南",
    "name:zh": "越南革命博物馆",
    "name:zh-Hant": "越南革命博物館",
    "tourism": "museum",
    "wikidata": "Q5370340",
    "wikimedia_commons": "Category:Vietnam Museum of Revolution",
    "wikipedia": "vi:Bảo tàng Cách mạng Việt Nam"
  }
},
{
  "type": "way",
  "id": 39268284,
  "center": {
    "lat": 15.8771163,
    "lon": 108.3260098
  },
  "nodes": [
    470538283,
    2987273573
  ],
  "tags": {
    "alt_name": "Lai Viễn Kiều",
    "alt_name:zh": "日本廊桥",
    "bridge": "yes",
    "covered": "yes",
    "highway": "footway",
    "layer": "1",
    "maxheight:signed": "no",
    "motor_vehicle": "no",
    "name": "Chùa Cầu",
    "name:en": "Japanese Bridge",
    "name:es": "Puente Japonés",
    "name:fr": "Pont Japonais",
    "name:ja": "来遠橋",
    "name:pl": "Most Japoński",
    "name:th": "สะพานญี่ปุ่น",
    "name:vi": "Chùa Cầu",
    "name:zh": "來遠橋",
    "name:zh-Hans": "来远桥",
    "name:zh-Hant": "來遠橋",
    "surface": "wood",
    "tourism": "attraction",
    "wikidata": "Q1091054",
    "wikipedia": "vi:Chùa Cầu"
  }
},
{
  "type": "way",
  "id": 39514793,
  "center": {
    "lat": 10.7799812,
    "lon": 106.7000211
  },
  "nodes": [
    473383096,
    473383125,
    2410639532,
    2410639529,
    2410639526,
    2410639523,
    2410639520,
    2410639515,
    473383130,
    473383115,
    7501051430,
    7501051431,
    473383121,
    473383162,
    1771302989,
    7501051518,
    7501051517,
    11329043514,
    11329043517,
    11329043492,
    1771302913,
    1883030387,
    473383096
  ],
  "tags": {
    "addr:city": "Ho Chi Minh City",
    "addr:district": "Quận 1",
    "addr:housenumber": "2",
    "addr:street": "125 Công xã Paris, Bến Nghé, Quận 1, Hồ Chí Minh",
    "amenity": "post_office",
    "atm": "yes",
    "building": "yes",
    "building:colour": "#e1cb8c",
    "height": "13.5",
    "heritage": "yes",
    "historic": "heritage",
    "int_name": "Saigon Central Post Office",
    "name": "Bưu điện Trung tâm Sài Gòn",
    "name:ar": "مكتب البريد المركزي سايجون",
    "name:be": "Цэнтральнае паштовае аддзяленне Сайгон",
    "name:de": "Saigon Zentrales Postamt",
    "name:en": "Saigon Central Post Office",
    "name:es": "Oficina de Correos Central de Saigón",
    "name:fr": "Poste centrale de Saïgon",
    "name:id": "Kantor Pos Pusat Saigon",
    "name:ja": "サイゴン中央郵便局",
    "name:ko": "중앙우체국",
    "name:ms": "Pejabat Pos Pusat Saigon",
    "name:nl": "Centrale Postkantoor",
    "name:ru": "Центральное почтовое отделение Сайгона",
    "name:uk": "Центральне поштове відділення Сайгона",
    "name:vi": "Bưu điện Trung tâm Sài Gòn",
    "name:vi-Hani": "郵電中心柴棍",
    "name:zh": "西贡中心邮政局",
    "name:zh-Hant": "西貢中心郵政局",
    "official_name": "Bưu điện Trung tâm Thành phố Hồ Chí Minh",
    "official_name:en": "Ho Chi Minh City Central Post Office",
    "old_name": "Saigon Post Office",
    "opening_hours": "Mo-Su 07:00-22:00",
    "operator": "Vietnam Post",
    "operator:wikidata": "Q112150791",
    "start_date": "1891",
    "tourism": "attraction",
    "wikidata": "Q2227270",
    "wikimedia_commons": "Category:Saigon Central Post Office",
    "wikipedia": "en:Saigon Central Post Office"
  }
},
{
  "type": "way",
  "id": 39514795,
  "center": {
    "lat": 10.7725707,
    "lon": 106.6980174
  },
  "nodes": [
    473382796,
    2893838361,
    2893838357,
    2893838358,
    2353541597,
    473382814,
    2893838359,
    2353541586,
    2893838360,
    2893838354,
    2893838355,
    2893838356,
    473382808,
    2893838371,
    473382825,
    2893838370,
    2893838369,
    2893838368,
    11842015839,
    2893838362,
    2893838364,
    2893838366,
    2893838365,
    2893838363,
    473382796
  ],
  "tags": {
    "addr:postcode": "71009",
    "addr:street": "Công trường Quách Thị Trang",
    "alt_name": "Chợ Sài Gòn",
    "amenity": "marketplace",
    "building": "retail",
    "name": "Chợ Bến Thành",
    "name:ar": "بن ثانه السوق",
    "name:cja-Latn": "Pasa Ben Thanh",
    "name:cjm-Latn": "Darak Ben Thanh",
    "name:cs": "Ben Thanh trhu",
    "name:da": "Ben Thanh markedet",
    "name:de": "Ben Thanh Markt",
    "name:en": "Ben Thanh Market",
    "name:eo": "Ben Thanh Merkato",
    "name:es": "Mercado de Ben Thanh",
    "name:fi": "Ben Thanh markkinoille",
    "name:fr": "Marché de Ben Thanh",
    "name:hi": "बेन थान बाजार",
    "name:hu": "Ben Thanh piac",
    "name:id": "Pasar Ben Thanh",
    "name:it": "Mercato di Ben Thanh",
    "name:ja": "ベンタイン市場",
    "name:ko": "벤타인 시장",
    "name:mn": "Бен Thanh зах зээл",
    "name:ms": "Pasar Ben Thanh",
    "name:nl": "Ben Thanh markt",
    "name:no": "Ben Thanh-markedet",
    "name:pl": "Targ Ben Thanh",
    "name:pt": "Mercado Ben Thanh",
    "name:ro": "Piață Ben Thanh",
    "name:ru": "Рынок Бен Тхань",
    "name:sv": "Ben Thanh-Marknaden",
    "name:th": "ตลาดเบนถั่น",
    "name:tr": "Ben Thanh Pazarı",
    "name:uk": "Ринок Бен Тхань",
    "name:vi": "Chợ Bến Thành",
    "name:vi-Hani": "𢄂𡔖城",
    "name:yue": "濱城市場",
    "name:zh": "滨城市场",
    "old_name": "Marché Central de Saïgon;Chợ Sài Gòn",
    "opening_hours": "Mo-Su 06:00-18:00",
    "phone": "0973756776",
    "tourism": "attraction",
    "website": "https://benthanhmarket.vn/",
    "wikidata": "Q3232879",
    "wikimedia_commons": "Category:Ben Thanh Market",
    "wikipedia": "en:Bến Thành Market"
  }
},
{
  "type": "way",
  "id": 39598493,
  "center": {
    "lat": 10.7770170,
    "lon": 106.6954031
  },
  "nodes": [
    2907851675,
    474688325,
    2907854107,
    474688297,
    474688254,
    474688215,
    474688230,
    474688188,
    474688205,
    474688168,
    11845303856,
    11845336208,
    11845336196,
    474688877,
    474688862,
    474688868,
    474688934,
    474689003,
    474688901,
    474689288,
    474689331,
    2907851675
  ],
  "tags": {
    "addr:city": "Ho Chi Minh City",
    "addr:country": "VN",
    "addr:housenumber": "135",
    "addr:street": "Nam Kỳ Khởi Nghĩa",
    "alt_name": "Hội trường Thống Nhất",
    "alt_name:en": "Reunification Palace",
    "alt_name:id": "Istana Reunifikasi",
    "alt_name:ru": "Дворец независимости",
    "alt_name:vi": "Hội trường Thống Nhất",
    "alt_name:vi-Hani": "會場統一",
    "building": "palace",
    "contact:phone": "+84-80-85037",
    "contact:website": "https://dinhdoclap.gov.vn",
    "name": "Dinh Độc Lập",
    "name:ar": "قصر الاستقلال",
    "name:de": "Wiedervereinigungspalast",
    "name:el": "το παλάτι της ανεξαρτησίας",
    "name:en": "Independence Palace",
    "name:es": "Palacio de la Reunificacion",
    "name:fr": "Palais de la Réunification",
    "name:id": "Istana Merdeka",
    "name:ja": "統一会堂",
    "name:ko": "통일궁",
    "name:ms": "Istana Merdeka",
    "name:ru": "Дворец воссоединения",
    "name:vi": "Dinh Độc Lập",
    "name:vi-Hani": "營獨立",
    "name:zh": "獨立宮/統一府",
    "official_name": "Hội trường Thống Nhất",
    "official_name:en": "Reunification Hall",
    "official_name:zh": "統一宮",
    "old_name:en": "Independence Hall",
    "old_name:fr": "Palais de l'Indépendance",
    "old_name:ja": "独立宮殿",
    "opening_date": "1966-10-31",
    "opening_hours": "Mo-Su 08:00-11:00,13:00-16:30",
    "operator": "Hội trường Thống Nhất",
    "tourism": "attraction",
    "wikidata": "Q933384",
    "wikimedia_commons": "Category:Independence Palace",
    "wikipedia": "vi:Dinh Độc Lập"
  }
},
{
  "type": "way",
  "id": 146780347,
  "center": {
    "lat": 12.2652997,
    "lon": 109.1951363
  },
  "nodes": [
    1600187645,
    1600187651,
    1600187659,
    2598979903,
    1600187687,
    1600187685,
    1600187655,
    1600187649,
    2071858640,
    1600187636,
    1600187630,
    1600187626,
    1600187610,
    1600187614,
    1600187606,
    1600187604,
    1600187602,
    1600187607,
    1600187616,
    1600187618,
    1600187634,
    1600187648,
    1600187641,
    1600187645
  ],
  "tags": {
    "archaeological_site": "city",
    "barrier": "fence",
    "era": "Cham",
    "historic": "archaeological_site",
    "historic:civilization": "cham",
    "name": "Tháp Po Nagar",
    "name:en": "Po Nagar Cham Towers",
    "name:id": "Menara Po Nagar Cham",
    "name:ko": "포나가르 탑",
    "name:ru": "Чамские Башни Понагар",
    "name:zh": "波那加塔",
    "religion": "hindu",
    "wikidata": "Q600269",
    "wikimedia_commons": "File:Ganesh Tempel Po Nagar Nha Trang.jpg",
    "wikipedia": "vi:Tháp Po Nagar"
  }
},
{
  "type": "way",
  "id": 178995269,
  "center": {
    "lat": 21.0278730,
    "lon": 105.8522929
  },
  "nodes": [
    1893252813,
    1893252827,
    1893252841,
    1893252824,
    1893252813
  ],
  "tags": {
    "access": "private",
    "addr:city": "Hà Nội",
    "addr:country": "VN",
    "alt_name": "Quy Sơn Tháp",
    "alt_name:zh": "龜山塔",
    "building": "monument",
    "historic": "monument",
    "name": "Tháp Rùa",
    "name:cs": "Želví věž",
    "name:de": "Schildkrötenturm",
    "name:en": "Turtle Tower",
    "name:es": "Torre de la Tortuga",
    "name:fr": "Tour de la Tortue",
    "name:id": "Menara Penyu",
    "name:ja": "亀の塔",
    "name:ko": "터틀 타워",
    "name:ru": "Башня Черепахи",
    "name:vi": "Tháp Rùa",
    "name:vi-Hani": "塔𪛇",
    "name:zh": "龜塔",
    "name:zh-Hans": "龟塔",
    "name:zh-Hant": "龜塔",
    "wikidata": "Q1134533",
    "wikimedia_commons": "Category:Turtle Tower",
    "wikipedia": "vi:Tháp Rùa"
  }
},
{
  "type": "way",
  "id": 186249226,
  "center": {
    "lat": 10.7793793,
    "lon": 106.6921923
  },
  "nodes": [
    1969358675,
    10723408119,
    11494188054,
    10723408125,
    10723408126,
    1969358651,
    11494188053,
    11494188056,
    10723462404,
    10723408114,
    1969358677,
    10723408129,
    10723408118,
    1969358672,
    10723408130,
    1969358675
  ],
  "tags": {
    "addr:city": "Ho Chi Minh City",
    "addr:housenumber": "28",
    "addr:street": "Võ Văn Tần",
    "barrier": "wall",
    "contact:email": "wrm@baotangchungtichchientranh.vn",
    "fee": "yes",
    "museum": "war",
    "name": "Bảo tàng Chứng tích Chiến tranh",
    "name:de": "Kriegsopfermuseum",
    "name:en": "War Remnants Museum",
    "name:es": "Museo de los Vestigios de la Guerra de Vietnam",
    "name:id": "Muzium Sisa Perang",
    "name:ru": "Музей жертв войны",
    "name:sv": "Krigsminnesmuseet",
    "name:vi": "Bảo tàng Chứng tích Chiến tranh",
    "opening_hours": "Mo-Su 07:30-12:00, 13:30-17:00",
    "tourism": "museum",
    "website": "https://www.baotangchungtichchientranh.vn/contact.html",
    "wikidata": "Q703871",
    "wikipedia": "en:War Remnants Museum"
  }
},
{
  "type": "way",
  "id": 198804453,
  "center": {
    "lat": 15.7629694,
    "lon": 108.1242816
  },
  "nodes": [
    2088919799,
    2088919794,
    2088919793,
    5922460808,
    2088919796,
    2088919799
  ],
  "tags": {
    "area": "yes",
    "historic": "ruins",
    "name": "D1",
    "ruins": "building",
    "wikidata": "Q132457133"
  }
},
{
  "type": "way",
  "id": 198804455,
  "center": {
    "lat": 15.7631617,
    "lon": 108.1243295
  },
  "nodes": [
    2088919809,
    2088919802,
    2088919800,
    5922460812,
    2088919803,
    2088919809
  ],
  "tags": {
    "area": "yes",
    "historic": "ruins",
    "name": "D2",
    "ruins": "building",
    "wikidata": "Q132457139"
  }
},
{
  "type": "way",
  "id": 198804459,
  "center": {
    "lat": 15.7633292,
    "lon": 108.1252705
  },
  "nodes": [
    2088919825,
    2088919824,
    2088919828,
    2088919826,
    2088919820,
    2088919817,
    2088919818,
    2088919819,
    2088919821,
    2088919825
  ],
  "tags": {
    "area": "yes",
    "historic": "ruins",
    "image": "https://upload.wikimedia.org/wikipedia/commons/0/0e/2024_-_M%E1%BB%B9_S%C6%A1n_Group_G_-_img_13.jpg",
    "name": "G1",
    "ruins": "building",
    "wikidata": "Q132457134"
  }
},
{
  "type": "way",
  "id": 198804461,
  "center": {
    "lat": 15.7633837,
    "lon": 108.1250676
  },
  "nodes": [
    2088919834,
    2088919830,
    2088919822,
    2088919827,
    2088919834
  ],
  "tags": {
    "area": "yes",
    "historic": "ruins",
    "image": "https://upload.wikimedia.org/wikipedia/commons/4/46/2024_-_M%E1%BB%B9_S%C6%A1n_Group_G_-_img_17.jpg",
    "name": "G3",
    "wikidata": "Q132457137"
  }
},
{
  "type": "way",
  "id": 198804483,
  "center": {
    "lat": 15.7655769,
    "lon": 108.1223336
  },
  "nodes": [
    2088919903,
    5922460342,
    12419309122,
    12419309121,
    5922460343,
    2088919900,
    12419272998,
    2088919863,
    2088919798,
    2088919760,
    2088919761,
    2088919838,
    2088919864,
    2088919879,
    2088919903
  ],
  "tags": {
    "heritage": "1",
    "heritage:operator": "whc",
    "historic": "archaeological_site",
    "name": "Thánh địa Mỹ Sơn",
    "name:en": "Mỹ Sơn Ruins",
    "name:es": "Santuario de My Son",
    "name:fr": "Sanctuaire de Mi-sön",
    "name:hy": "Մայ սան",
    "name:ko": "미손유적지",
    "name:vi-Hani": "聖地美山",
    "name:zh": "美山聖地",
    "ref:whc": "949",
    "religion": "hindu",
    "tourism": "attraction",
    "whc:criteria": "(ii)(iii)",
    "whc:inscription_date": "1999",
    "wikidata": "Q391406",
    "wikipedia": "fr:Sanctuaire de Mỹ Sơn",
    "wikipedia:es": "Santuario_de_My_Son"
  }
},
{
  "type": "way",
  "id": 208255133,
  "center": {
    "lat": 21.0100130,
    "lon": 105.7863090
  },
  "nodes": [
    7944167534,
    7944167535,
    7944167536,
    7944167537,
    7944167534
  ],
  "tags": {
    "addr:city": "Hà Nội",
    "addr:district": "Nam Từ Liêm",
    "addr:province": "Hà Nội",
    "addr:street": "Đường Phạm Hùng",
    "addr:subdistrict": "Mễ Trì",
    "building": "yes",
    "contact:facebook": "https://www.facebook.com/baotanghanoi.hanoimuseum",
    "name": "Bảo tàng Hà Nội",
    "name:en": "Hanoi Museum",
    "name:es": "Museo de Hanói",
    "name:fr": "Musée de Hanoï",
    "name:ko": "하노이 박물관",
    "name:vi": "Bảo tàng Hà Nội",
    "name:zh": "河內博物館",
    "opening_hours": "Tu-Su 08:00-11:30,13:30-17:00",
    "phone": "+84 978 509 935",
    "tourism": "museum",
    "website": "https://baotanghanoi.com.vn/",
    "wikidata": "Q1835176",
    "wikimedia_commons": "Category:Hanoi Museum",
    "wikipedia": "vi:Bảo tàng Hà Nội"
  }
},
{
  "type": "way",
  "id": 228075195,
  "center": {
    "lat": 21.0222196,
    "lon": 105.8442397
  },
  "nodes": [
    2367210996,
    8194665237,
    11332494729,
    7823457790,
    10812491478,
    8194665235,
    8194665236,
    7823457826,
    2367210993,
    7823457824,
    7823457825,
    2367210995,
    7824701470,
    2367210998,
    7823457830,
    2367210997,
    7823457829,
    7823457832,
    7823457836,
    2367211003,
    7823457838,
    2367210996
  ],
  "tags": {
    "addr:city": "Hà Nội",
    "addr:country": "VN",
    "addr:district": "Hoàn Kiếm",
    "addr:housenumber": "91",
    "addr:province": "Hà Nội",
    "addr:street": "Phố Trần Hưng Đạo",
    "addr:subdistrict": "Trần Hưng Đạo",
    "alt_name": "Cung Văn Hóa Hữu Nghị Việt Xô",
    "amenity": "community_centre",
    "landuse": "commercial",
    "layer": "1",
    "name": "Cung Văn hóa Lao động Hữu nghị Việt Xô",
    "name:en": "Vietnam-Soviet Friendship Cultural Center",
    "name:id": "Istana Budaya dan Pertemanan Vietnam-Soviet",
    "name:ru": "Дворец культуры и труда вьетнамско-советской дружбы",
    "tourism": "attraction",
    "website": "https://cungvanhoalaodonghuunghivietxo.vn/",
    "wikidata": "Q10751146",
    "wikimedia_commons": "Category:Vietnam-Soviet Friendship Labor Cultural Palace",
    "wikipedia": "vi:Cung Văn hóa Lao động Hữu nghị Việt Xô"
  }
},
{
  "type": "way",
  "id": 235008112,
  "center": {
    "lat": 10.3265012,
    "lon": 107.0845207
  },
  "nodes": [
    2431159321,
    2431159322,
    2431159323,
    2431159332,
    2431159324,
    2431159325,
    2431159326,
    2431159327,
    2431159328,
    2431159329,
    2431159330,
    2431159331,
    2431159321
  ],
  "tags": {
    "alt_name": "Tượng Chúa Dang Tay",
    "alt_name:vi": "Tượng Chúa Dang Tay",
    "building": "yes",
    "height": "32",
    "historic": "monument",
    "level": "4",
    "man_made": "tower",
    "memorial": "statue",
    "name": "Tượng Chúa Kitô Vua",
    "name:en": "Christ of Vung Tau",
    "name:fr": "Christ Roi de Vung Ta",
    "name:id": "Kristus Raja Vung Tau",
    "name:ja": "王であるキリスト像",
    "name:ko": "붕따우 그리스도상",
    "name:pt": "Cristo de Vung Tau",
    "name:ru": "Христос Царь",
    "name:vi": "Tượng Chúa Kitô Vua",
    "name:zh": "基督君王像",
    "official_name": "Tượng đài Chúa Kitô Vua Núi Tao Phùng",
    "official_name:en": "State of Christ the King on Tao Phung Mountain",
    "official_name:id": "Patung Kristus Raja Gunung Tao Phung",
    "official_name:vi": "Tượng đài Chúa Kitô Vua Núi Tao Phùng",
    "smoking": "outside",
    "start_date": "1995-12-1",
    "tourism": "attraction",
    "wikidata": "Q277837",
    "wikimedia_commons": "Category:Christ of Vung Tau",
    "wikipedia": "en:Christ of Vũng Tàu"
  }
},
{
  "type": "way",
  "id": 242169982,
  "center": {
    "lat": 20.0780149,
    "lon": 105.6044464
  },
  "nodes": [
    1863427054,
    2496891284,
    2496891283,
    2496891281,
    2496891278,
    6042419522,
    2496891282,
    1863427054
  ],
  "tags": {
    "heritage": "1",
    "heritage:operator": "whc",
    "historic": "archaeological_site",
    "name": "Thành Nhà Hồ",
    "name:af": "Sitadel van die Ho-dinastie",
    "name:ar": "قلعة سلالة هو",
    "name:az": "Ho sülaləsinin istehkamı",
    "name:ca": "Ciutadella de la dinastia Hồ",
    "name:cs": "Královská pevnost dynastie Ho",
    "name:da": "Citadel Hồ-dynastiet",
    "name:de": "Zitadelle der Hồ-Dynastie",
    "name:el": "Φρούριο της Δυναστείας Χο",
    "name:en": "Citadel of the Ho Dynasty",
    "name:eo": "Thanh Nha Ho",
    "name:es": "Ciudadela de la dinastía Ho",
    "name:et": "Hồ dünastia kindlus",
    "name:eu": "Hồ leinuaren zitadela",
    "name:fa": "قلعه خاندان هو",
    "name:fi": "Hồ-dynastian linnoitus",
    "name:fr": "Citadelle de la dynastie Hô",
    "name:he": "מצודת שושלת הו",
    "name:hr": "Citadela dinastije Ho",
    "name:ht": "Sitadèl la Ho dinasti",
    "name:hu": "A Hồ-dinasztia fellegvára",
    "name:id": "Benteng Dinasti Ho",
    "name:is": "Höll Ho-konungsættarinnar",
    "name:it": "Cittadella della dinastia Ho",
    "name:ja": "胡朝の城塞",
    "name:ka": "ჰოს დინასტიის ციტადელი",
    "name:ko": "호 왕조성",
    "name:lb": "Zitadell vun der Hồ-Dynastie",
    "name:mk": "Тврдина на династијата Хо",
    "name:ms": "Kubu kota Empayar Dinasti Ho",
    "name:ne": "हो वंशको कोट",
    "name:nl": "Citadel van de Ho-dynastie",
    "name:no": "Ho-dynastiets citadell",
    "name:pl": "Cytadela dynastii Hồ",
    "name:pt": "Cidade Imperial de Ho",
    "name:ru": "Цитадель династии Хо",
    "name:sk": "Citadela dynastie Ho",
    "name:sq": "Kala të Dynastia Ho",
    "name:sr": "Цитаделе Хо династије",
    "name:sv": "Hodynastins citadell",
    "name:th": "ป้อมปราการของราชวงศ์โห่",
    "name:uk": "Цитадель династії Хо",
    "name:vi": "Thành Nhà Hồ",
    "name:zh": "西都城",
    "ref:whc": "1358-001",
    "tourism": "attraction",
    "whc:criteria": "(ii)(iv)",
    "whc:inscription_date": "2011",
    "wikidata": "Q190060",
    "wikipedia": "fr:Citadelle de la dynastie Hô",
    "wikipedia:es": "Ciudadela_de_la_dinastía_Ho"
  }
},
{
  "type": "way",
  "id": 259518443,
  "center": {
    "lat": 10.3306313,
    "lon": 107.0767986
  },
  "nodes": [
    2649479872,
    2649479874,
    2649479876,
    2649479884,
    2649479872
  ],
  "tags": {
    "addr:city": "Phường 2",
    "addr:housenumber": "66/7",
    "addr:street": "Hạ Long",
    "amenity": "place_of_worship",
    "building": "yes",
    "name": "Niết Bàn Tịnh Xá",
    "name:id": "Wihara Niet Ban Tinh Xa (Wihara Nirvana)",
    "name:ko": "열반정사",
    "name:ru": "Дом чистой нирваны",
    "name:vi": "Niết Bàn Tịnh Xá",
    "name:zh": "涅槃精舍",
    "religion": "buddhist",
    "tourism": "attraction",
    "wikidata": "Q10801482"
  }
},
{
  "type": "way",
  "id": 286297477,
  "center": {
    "lat": 10.7680690,
    "lon": 106.7036691
  },
  "nodes": [
    2899425868,
    2899425869,
    2899425870,
    2899425871,
    2899425872,
    2899425873,
    2899425874,
    2899425875,
    2899425876,
    2899425877,
    2899425878,
    2899425879,
    2899425880,
    2899425881,
    2899425882,
    2899425883,
    2899425884,
    5865931154,
    2899425885,
    2899425886,
    2899425887,
    2899425868
  ],
  "tags": {
    "area": "yes",
    "bridge:structure": "beam",
    "historic": "yes",
    "layer": "1",
    "man_made": "bridge",
    "name": "Cầu Mống",
    "name:en": "Mong Bridge",
    "name:id": "Jembatan Mong",
    "name:ms": "Jembatan Mong",
    "name:ru": "мост Монг",
    "name:zh": "芒桥",
    "name:zh-Hant": "芒橋",
    "old_name": "Pont des Messageries maritimes",
    "old_name:id": "Jembatan Pengiriman Maritim",
    "old_name:ru": "Мост путаницы морских",
    "old_name:zh": "海上运输桥",
    "tourism": "attraction",
    "wikidata": "Q16481264",
    "wikimedia_commons": "Category:Mong Bridge",
    "wikipedia": "en:Mong Bridge"
  }
},
{
  "type": "way",
  "id": 302872188,
  "center": {
    "lat": 16.0601964,
    "lon": 108.2231680
  },
  "nodes": [
    3071555442,
    6328456264,
    6328456265,
    6328456266,
    3071555443,
    3760254415,
    3760254412,
    3760254414,
    3760254413,
    3760254411,
    3071555444,
    3070488197,
    3071555445,
    13016747672,
    6328456260,
    6328456261,
    3071555442
  ],
  "tags": {
    "addr:street": "Đường Bạch Đằng",
    "check_date": "2023-01-07",
    "name": "Bảo tàng Nghệ thuật Điêu khắc Chăm Đà Nẵng",
    "name:en": "Museum of Cham Sculpture",
    "name:es": "Museo de la Escultura Cham",
    "name:fr": "Musée de Sculpture Cham",
    "name:ru": "Музей Чамской скульптуры",
    "name:vi": "Bảo tàng Nghệ thuật Điêu khắc Chăm Đà Nẵng",
    "name:zh": "占婆雕刻艺术博物馆",
    "tourism": "museum",
    "wikidata": "Q6940790",
    "wikipedia": "vi:Bảo tàng Nghệ thuật điêu khắc Chăm Đà Nẵng",
    "wikipedia:en": "Museum of Cham Sculpture"
  }
},
{
  "type": "way",
  "id": 339936730,
  "center": {
    "lat": 21.0403941,
    "lon": 105.7988369
  },
  "nodes": [
    3397765853,
    11634557467,
    11630473318,
    11634557464,
    11634557482,
    11634557479,
    3397765852,
    11634821037,
    11634821034,
    11117136624,
    11117136566,
    11117136636,
    11117136573,
    11117136637,
    11117136569,
    11117136629,
    3471347664,
    3471347665,
    11634557508,
    11400892798,
    11400892799,
    11117162061,
    11400892800,
    11240561467,
    3471347667,
    11634557442,
    10229622768,
    10229622769,
    10229622770,
    11634557445,
    10229622771,
    11634557443,
    10270778820,
    11633733465,
    11634557439,
    3449986001,
    3397765853
  ],
  "tags": {
    "addr:city": "Hà Nội",
    "addr:country": "VN",
    "addr:district": "Cầu Giấy",
    "addr:province": "Hà Nội",
    "addr:street": "Đường Nguyễn Văn Huyên",
    "addr:subdistrict": "Quan Hoa",
    "charge": "40000 VND",
    "contact:facebook": "https://www.facebook.com/btdth",
    "email": "information@vme.org.vn",
    "fax": "+842438360351",
    "fee": "yes",
    "name": "Bảo tàng Dân tộc học Việt Nam",
    "name:de": "Ethnologisches Museum von Vietnam",
    "name:en": "Vietnam Museum of Ethnology",
    "name:fr": "Musée d'Ethnologie du Vietnam",
    "name:ja": "ハノイ民族学博物館",
    "name:ko": "베트남 민족학 박물관",
    "name:vi": "Bảo tàng Dân tộc học Việt Nam",
    "name:vi-Hani": "寶藏民族學越南",
    "name:zh": "越南民族博物館",
    "name:zh-Hans": "越南民族博物馆",
    "name:zh-Hant": "越南民族博物館",
    "opening_hours": "Tu-Su 08:30-17:30",
    "operator": "Viện Hàn lâm Khoa học xã hội Việt Nam",
    "operator:type": "public/government",
    "phone": "+842437562193",
    "start_date": "1997",
    "tourism": "museum",
    "website": "https://www.vme.org.vn/",
    "wikidata": "Q1048345",
    "wikimedia_commons": "Category:Vietnam Museum of Ethnology",
    "wikipedia": "vi:Bảo tàng Dân tộc học Việt Nam"
  }
},
{
  "type": "way",
  "id": 340128580,
  "center": {
    "lat": 21.0253763,
    "lon": 105.8464274
  },
  "nodes": [
    3473315628,
    3473315636,
    3473315635,
    11832472666,
    3473315643,
    3473315644,
    3473315642,
    3473315641,
    3473315639,
    3473315640,
    3473315637,
    3473315638,
    3473315634,
    3473315633,
    3473315630,
    3473315632,
    3473315631,
    3473315629,
    3473315628
  ],
  "tags": {
    "addr:city": "Hà Nội",
    "addr:country": "VN",
    "addr:housenumber": "1",
    "addr:street": "Phố Hỏa Lò",
    "alt_name": "Nhà tù Hoả Lò",
    "alt_name:vi": "Nhà tù Hoả Lò",
    "building": "yes",
    "building:levels": "2",
    "name": "Nhà tù Hỏa Lò",
    "name:de": "Hoa Lo Gefängnis",
    "name:en": "Hoa Lo Prison (Hanoi Hilton)",
    "name:es": "Museo de la Prisión de Hoa Lo",
    "name:fr": "Prison Hoa Lo (Maison centrale)",
    "name:it": "Museo della Prigione di Hoa Lo",
    "name:ko": "하노이 힐턴",
    "name:vi": "Nhà tù Hoả Lò",
    "name:zh-Hans": "火炉监狱",
    "name:zh-Hant": "火爐監獄",
    "old_name": "Maison Centrale",
    "opening_hours": "Mo-Su 08:00-17:00",
    "phone": "84439342253",
    "tourism": "museum",
    "wikidata": "Q1359941",
    "wikimedia_commons": "Category:Hanoi Hilton",
    "wikipedia": "en:Hỏa Lò Prison"
  }
},
{
  "type": "way",
  "id": 341504305,
  "center": {
    "lat": 10.7765959,
    "lon": 106.7009554
  },
  "nodes": [
    7498848143,
    7498848144,
    7498848145,
    3486809833,
    7500135738,
    3486809796,
    3486801791,
    3486801787,
    3486801775,
    3486801767,
    3486801770,
    3486801748,
    3486801747,
    3486801749,
    3486801750,
    3486801756,
    3486801759,
    3486801754,
    3486801757,
    3486801764,
    3486801766,
    3486801778,
    3486801782,
    3486801786,
    3486809793,
    3486809795,
    3486809797,
    3486809801,
    3486809798,
    3486809799,
    3486809800,
    3486809803,
    3486809808,
    3486809814,
    3486809805,
    3486809806,
    3486809810,
    3486809819,
    3486809809,
    3486809812,
    3486809815,
    3486809816,
    3486809813,
    3486809807,
    7500135739,
    3486809817,
    3486809820,
    11551555138,
    7498848143
  ],
  "tags": {
    "addr:city": "Thành phố Hồ Chí Minh",
    "addr:country": "VN",
    "addr:district": "Quận 1",
    "addr:housenumber": "86",
    "addr:postcode": "71006",
    "addr:street": "Lê Thánh Tôn",
    "amenity": "townhall",
    "architect": "Femand Gardès",
    "building": "civic",
    "building:levels": "3",
    "end_date": "1909",
    "name": "Trụ sở Ủy ban nhân dân TP.Hồ Chí Minh",
    "name:cjm-Latn": "Kommit Buel-bhap Madin Ho Chi Minh",
    "name:de": "Sitz des Volkskomitees",
    "name:en": "Ho Chi Minh City Hall",
    "name:es": "Ayuntamiento de Ciudad Ho Chi Minh",
    "name:fr": "Hôtel de ville de Hô-Chi-Minh-Ville",
    "name:id": "Balai Komite Rakyat Kota Ho Chi Minh",
    "name:it": "Palazzo del Comitato del Popolo",
    "name:ja": "ホーチミン人民委員会庁舎",
    "name:ko": "호찌민 시청",
    "name:ru": "Здание Народного комитета Хошимина",
    "name:vi": "Trụ sở Ủy ban Nhân dân Thành phố Hồ Chí Minh",
    "name:vi-Hani": "住所委辦人民城庯胡志明",
    "name:zh": "胡志明市政宮",
    "official_name:ko": "호찌민시 인민위원회 청사",
    "old_name": "Tòa đô chánh Saigon",
    "old_name:en": "Saigon City Hall",
    "old_name:fr": "Hôtel de Ville de Saïgon",
    "old_name:zh": "都政宫",
    "opening_hours": "Mo-Fr 07:30-17:00",
    "phone": "+84 28 3829 6052",
    "polling_station": "no",
    "smoking": "outside",
    "start_date": "1898",
    "tourism": "attraction",
    "townhall:type": "city",
    "website": "https://vpub.hochiminhcity.gov.vn/",
    "wikidata": "Q2227195",
    "wikimedia_commons": "Category:People's Committee Building of Ho Chi Minh City",
    "wikipedia": "vi:Trụ sở Ủy ban Nhân dân Thành phố Hồ Chí Minh"
  }
},
{
  "type": "way",
  "id": 343077412,
  "center": {
    "lat": 17.4749775,
    "lon": 106.6233497
  },
  "nodes": [
    3499957697,
    3499957699,
    3499957717,
    3499957702,
    5638746721,
    3499957697
  ],
  "tags": {
    "amenity": "place_of_worship",
    "building": "church",
    "description:en": "American war church ruin",
    "heritage": "yes",
    "name": "Chứng tích nhà thờ Tam tòa",
    "name:en": "Tam Toa Church",
    "religion": "christian",
    "tourism": "attraction",
    "wikidata": "Q7680488"
  }
},
{
  "type": "way",
  "id": 376923094,
  "center": {
    "lat": 10.7993714,
    "lon": 106.6659894
  },
  "nodes": [
    3803003360,
    11772948249,
    9401725196,
    9401725182,
    3803003361,
    3803003362,
    9401725180,
    9401725188,
    9401725187,
    9401725191,
    3803003363,
    3803003364,
    3803003365,
    3803003360
  ],
  "tags": {
    "landuse": "commercial",
    "name": "Bảo tàng Lực lượng Vũ trang miền Đông Nam Bộ",
    "name:en": "Southeastern Armed Forces Museum",
    "tourism": "museum",
    "wikidata": "Q18207723",
    "wikipedia": "en:Southeastern Armed Forces Museum Military Zone 7"
  }
},
{
  "type": "way",
  "id": 463548000,
  "center": {
    "lat": 10.8619124,
    "lon": 106.8037899
  },
  "nodes": [
    4588166399,
    13097743005,
    13097674768,
    13097743004,
    4588166446,
    4588166400,
    4588166401,
    4588166402,
    4588166403,
    4588166404,
    5154033893,
    4588166405,
    5154033892,
    5154033891,
    4588166406,
    5154033890,
    4588166407,
    4588166408,
    4588166409,
    4588166410,
    4588166411,
    4588166412,
    4588166413,
    4588166414,
    4588166415,
    4588166416,
    4588166417,
    4588166418,
    4588166419,
    4588166420,
    4588166421,
    4588166422,
    4588166423,
    4588166424,
    11549350168,
    4588166425,
    11389598603,
    11389598600,
    11389598602,
    4588166426,
    4588571196,
    11389598601,
    4588166429,
    2951381973,
    5741177585,
    4588166430,
    5741177577,
    5741177576,
    4588166431,
    4588166432,
    4588166433,
    4588166434,
    4588166435,
    4588166436,
    4588166437,
    4588166438,
    4588166439,
    4588166440,
    4588166441,
    4588166442,
    4588166443,
    4588166445,
    4588166444,
    6820662915,
    6820662914,
    4588166399
  ],
  "tags": {
    "addr:city": "Thành phố Thủ Đức",
    "addr:housenumber": "120",
    "addr:province": "Thành phố Hồ Chí Minh",
    "addr:street": "Xa lộ Hà Nội",
    "addr:subdistrict": "Phường Tân Phú",
    "alt_name": "Suối Tiên Amusement Park",
    "name": "Khu du lịch Suối Tiên",
    "opening_hours": "08:00-17:00",
    "phone": "+84 1900 636787;+84 28 3896 0260",
    "tourism": "theme_park",
    "website": "https://www.suoitien.com/",
    "wikidata": "Q2930683",
    "wikimedia_commons": "Category:Suoi Tien Amusement Park",
    "wikipedia": "en:Suối Tiên Amusement Park"
  }
},
{
  "type": "way",
  "id": 515288644,
  "center": {
    "lat": 11.9345706,
    "lon": 108.4306649
  },
  "nodes": [
    5032638901,
    5032638900,
    5032638899,
    5032638898,
    5032638897,
    5032638896,
    5032638895,
    5032638893,
    5032638890,
    5032638901
  ],
  "tags": {
    "addr:city": "Da Lat City",
    "addr:housenumber": "3",
    "addr:province": "Lam Dong",
    "addr:street": "Huỳnh Thúc Kháng",
    "building": "yes",
    "building:levels": "3",
    "fee": "yes",
    "name": "Crazy House",
    "name:de": "Crazy House",
    "name:en": "Hang Nga Crazy House",
    "name:vi": "Ngôi nhà quái dị",
    "opening_hours": "Mo-Su 08:30-19:00",
    "phone": "0633822070",
    "tourism": "museum",
    "website": "https://www.crazyhouse.vn/",
    "wikidata": "Q1171693",
    "wikimedia_commons": "Category:Hang Nga guesthouse",
    "wikipedia": "de:Das verrückte Haus",
    "wikipedia:en": "Hằng Nga Guesthouse"
  }
},
{
  "type": "way",
  "id": 531031566,
  "center": {
    "lat": 16.4687434,
    "lon": 107.5783867
  },
  "nodes": [
    5155273796,
    5155273795,
    5155273794,
    5155273793,
    6533833780,
    6533833779,
    6533833778,
    6533833781,
    6533833782,
    5155273796
  ],
  "tags": {
    "alt_name:en": "Hall of Supreme Harmony",
    "building": "yes",
    "building:levels": "2",
    "historic:civilization": "vietnamese",
    "name": "Điện Thái Hòa",
    "name:en": "Thai Hoa Hall",
    "name:id": "Istana Keharmonisan",
    "name:ja": "太和殿",
    "name:ko": "태화전",
    "name:vi": "Điện Thái Hòa",
    "name:zh": "太和殿",
    "tourism": "attraction",
    "wikidata": "Q6826745"
  }
},
{
  "type": "way",
  "id": 541543831,
  "center": {
    "lat": 10.9231906,
    "lon": 108.1000546
  },
  "nodes": [
    5236469901,
    5236469900,
    5236469899,
    5236469898,
    5236469901
  ],
  "tags": {
    "addr:housenumber": "231",
    "addr:street": "Ngư Ông",
    "alt_name": "Đình Vạn Thủy Tú",
    "amenity": "place_of_worship",
    "name": "Vạn Thủy Tú",
    "name:en": "Thuy Tu Temple",
    "name:ru": "Храм кита - Вьетнам ФМ",
    "opening_hours": "Mo-Su 09:00-13:00, 15:00-17:00",
    "religion": "buddhist",
    "tourism": "attraction",
    "wikidata": "Q10834146"
  }
},
{
  "type": "way",
  "id": 576742550,
  "center": {
    "lat": 21.1070890,
    "lon": 105.9597632
  },
  "nodes": [
    5530869252,
    5530869251,
    5530869250,
    5530869249,
    5530869248,
    5530869247,
    5530869246,
    5530869245,
    5530869244,
    5530869243,
    5533600349,
    5530869242,
    5530869241,
    5530869240,
    5533599691,
    5530869239,
    5530869238,
    5530869237,
    5530869236,
    5530869235,
    5530869234,
    5530869252
  ],
  "tags": {
    "addr:city": "Bắc Ninh",
    "addr:district": "Thành phố Từ Sơn",
    "addr:province": "Bac Ninh",
    "addr:street": "Đường Lý Thái Tổ",
    "addr:subdistrict": "Phường Đình Bảng",
    "alt_name": "Đền Lý Bát Đế",
    "alt_name:zh": "都廟",
    "amenity": "place_of_worship",
    "historic": "yes",
    "name": "Đền Đô",
    "name:en": "Ly Bat De Temple",
    "name:id": "Kuil Ly Bat De (Delapan Raja Dinasti Ly)",
    "name:ko": "리바디사원",
    "name:ru": "Либатдэ",
    "name:zh": "李八帝廟",
    "old_name": "Cổ Pháp Điện",
    "religion": "buddhist",
    "tourism": "attraction",
    "wikidata": "Q180566",
    "wikipedia": "en:Lý Bát Đế Temple"
  }
},
{
  "type": "way",
  "id": 627379348,
  "center": {
    "lat": 15.7629158,
    "lon": 108.1240307
  },
  "nodes": [
    5922460871,
    5922460868,
    5922460869,
    5922460870,
    5922460871
  ],
  "tags": {
    "area": "yes",
    "historic": "ruins",
    "historic:civilization": "cha",
    "name": "B5",
    "ruins": "building",
    "wikidata": "Q132456986"
  }
},
{
  "type": "way",
  "id": 677227553,
  "center": {
    "lat": 13.8684375,
    "lon": 109.1351858
  },
  "nodes": [
    6341254871,
    6341254880,
    6341254879,
    6341254878,
    6341254872,
    6341254873,
    6341254875,
    6341254874,
    6341254876,
    6341254877,
    6341254871
  ],
  "tags": {
    "alt_name:en": "Silver Towers",
    "building": "yes",
    "historic": "ruins",
    "name": "Tháp Bánh Ít",
    "name:en": "Banh It Cham Towers",
    "name:zh": "餅乙塔",
    "wikidata": "Q10825825"
  }
},
{
  "type": "way",
  "id": 683416736,
  "center": {
    "lat": 15.9949242,
    "lon": 107.9962304
  },
  "nodes": [
    6401160565,
    6401160564,
    6401160563,
    6401160562,
    6401160561,
    6401160560,
    6401160559,
    6401160558,
    6401160556
  ],
  "tags": {
    "bridge": "yes",
    "colour": "gold",
    "highway": "path",
    "name": "Cầu Vàng",
    "name:en": "Golden Bridge",
    "name:ko": "방교",
    "name:ru": "Золотой мост (тот, что на двух руках)",
    "surface": "paved",
    "tourism": "attraction",
    "wikidata": "Q55954790",
    "wikipedia": "en:Golden Bridge (Vietnam)"
  }
},
{
  "type": "way",
  "id": 694831926,
  "center": {
    "lat": 16.0611683,
    "lon": 108.2278981
  },
  "nodes": [
    6525623013,
    11161070761,
    2988146962,
    2988146956,
    6525623010,
    2990909266,
    2990909267,
    2990909268,
    11161077291,
    6525623011,
    11161070777,
    2988146961,
    2988146985,
    11161070776,
    6525623012,
    2990909263,
    2990909261,
    6525623013
  ],
  "tags": {
    "bridge:structure": "arch",
    "description": "Saturday and Sunday, 9pm",
    "layer": "1",
    "man_made": "bridge",
    "name": "Cầu Rồng",
    "name:en": "Dragon Bridge",
    "name:id": "Jembatan Naga",
    "name:ko": "드래곤 브릿지",
    "name:ru": "Мост Дракона",
    "name:zh": "龙桥",
    "name:zh-Hans": "龙桥",
    "name:zh-Hant": "龍橋",
    "opening_hours": "24/7",
    "tourism": "attraction",
    "wikidata": "Q5305270"
  }
},
{
  "type": "way",
  "id": 696389268,
  "center": {
    "lat": 21.0352574,
    "lon": 105.8402519
  },
  "nodes": [
    6539666970,
    6539666925,
    6539666926,
    12065103402,
    6539666927,
    6539666928,
    6539666969,
    10002371888,
    6539666932,
    6539666933,
    6539666930,
    10002371887,
    6539666968,
    6539666924,
    6539666923,
    11802288148,
    6539666922,
    6539666921,
    6539666967,
    6539666966,
    10002371886,
    6539666965,
    6539666929,
    4530855116,
    6539666931,
    6539666964,
    10002371885,
    6542298582,
    6542298576,
    6539666963,
    6539666970
  ],
  "tags": {
    "building": "yes",
    "historic": "city_gate",
    "name": "Đoan Môn",
    "name:en": "Doan Mon Gate",
    "name:id": "Gerbang Kejujutan",
    "name:ko": "단문",
    "name:vi": "Đoan Môn",
    "name:vi-Hani": "端門",
    "name:zh": "端門",
    "name:zh-Hans": "端门",
    "name:zh-Latn-pinyin": "duānmén",
    "tourism": "attraction",
    "wikidata": "Q20025612",
    "wikimedia_commons": "Category:Đoan Môn Gate",
    "wikipedia": "vi:Đoan Môn"
  }
},
{
  "type": "way",
  "id": 696913691,
  "center": {
    "lat": 21.0357532,
    "lon": 105.8402425
  },
  "nodes": [
    5406185422,
    11262010584,
    11261946477,
    11261946517,
    11261946518,
    6544886419,
    6544886418,
    6640744492,
    6544886416,
    6544886415,
    12088976062,
    12088976058,
    12088976055,
    12088976052,
    12088976048,
    12088976044,
    12088976041,
    6544877859,
    6544886426,
    6638957670,
    6539661354,
    6539666886,
    6539661371,
    11802288130,
    6539661374,
    11262909333,
    6544877858,
    6544877857,
    6544877856,
    6544877855,
    6544877854,
    1961611577,
    1961611623,
    1961611545,
    12061058542,
    11261946446,
    12061058541,
    10009609259,
    6544877847,
    12061058540,
    6544877846,
    11262010598,
    11262010597,
    6544877843,
    977668049,
    6544877842,
    6544877864,
    12075504915,
    5406185423,
    6544877868,
    12090018750,
    11261946472,
    11261946481,
    12090018749,
    12090018748,
    5406185422
  ],
  "tags": {
    "access": "yes",
    "addr:city": "Hà Nội",
    "addr:country": "VN",
    "alt_name": "Tử cấm thành Thăng Long",
    "alt_name:en": "Imperial Citadel of Thăng Long",
    "alt_name:vi": "Tử cấm thành Thăng Long",
    "castle_type": "palace",
    "historic": "castle",
    "name": "Hoàng thành Thăng Long",
    "name:de": "Zitadelle Thăng Long",
    "name:en": "Imperial Citadel of Thang Long",
    "name:es": "Ciudad imperiale de Thang Long",
    "name:fr": "Cité impériale de Thang Long",
    "name:id": "Kota Kerajaan Thang Long",
    "name:ja": "タンロン皇城",
    "name:ko": "탕롱 황성",
    "name:ko-Hani": "升龍皇城",
    "name:ms": "Kubu kota empayar Thang Long",
    "name:ru": "Ханойская цитадель",
    "name:vi": "Hoàng thành Thăng Long",
    "name:vi-Hani": "皇城升龍",
    "name:zh": "升龙皇城",
    "name:zh-Hans": "升龙皇城",
    "name:zh-Hant": "升龍皇城",
    "opening_hours": "Tu-Su 08:00-17:00",
    "tourism": "attraction",
    "wikidata": "Q206219",
    "wikipedia": "vi:Hoàng thành Thăng Long"
  }
},
{
  "type": "way",
  "id": 697326496,
  "center": {
    "lat": 21.0358556,
    "lon": 105.8336144
  },
  "nodes": [
    6549313825,
    6549313824,
    6549313823,
    11959754640,
    6549313817,
    11959754639,
    6549313822,
    6549313825
  ],
  "tags": {
    "addr:city": "Hà Nội",
    "addr:country": "VN",
    "addr:district": "Quận Ba Đình",
    "addr:postcode": "100000",
    "addr:province": "Hà Nội",
    "addr:street": "Phố Ông Ích Khiêm",
    "addr:subdistrict": "Phường Ngọc Hà",
    "alt_name": "Chùa Mật;Diên Hựu tự;Liên Hoa Đài;Chùa Diên Hựu",
    "alt_name:vi": "Chùa Mật;Diên Hựu tự;Liên Hoa Đài;Chùa Diên Hựu",
    "alt_name:zh-Hans": "一柱塔;延祐寺;莲花台",
    "alt_name:zh-Hant": "一柱塔;延祐寺;蓮花臺",
    "amenity": "place_of_worship",
    "building": "temple",
    "layer": "1",
    "name": "Chùa Một Cột",
    "name:de": "Einsäulenpagode",
    "name:en": "One Pillar Pagoda",
    "name:es": "Pagoda del pilar único",
    "name:fr": "Pagode Môt Côt",
    "name:id": "Vihara Dien Huu",
    "name:ja": "一柱寺",
    "name:ko": "못꼿사원",
    "name:ms": "Pagoda Satu Tiang",
    "name:pi": "Vihara Mangala Sadaiva",
    "name:vi-Hani": "㕑𠬠榾",
    "name:zh": "延祐寺",
    "religion": "buddhist",
    "start_date": "1049",
    "tourism": "attraction",
    "wikidata": "Q1186292",
    "wikimedia_commons": "Category:One Pillar Pagoda",
    "wikipedia": "vi:Chùa Một Cột"
  }
},
{
  "type": "way",
  "id": 698018249,
  "center": {
    "lat": 21.0414535,
    "lon": 105.8405062
  },
  "nodes": [
    6555407810,
    6555407805,
    11936367276,
    11936367278,
    11936367279,
    11936367277,
    6555407804,
    6555407803,
    6555407802,
    6555407801,
    11936367272,
    11936367271,
    11936367273,
    6555407799,
    6555407798,
    6555407797,
    11936367274,
    11936367286,
    11936367275,
    11936367285,
    6555407795,
    6555407794,
    11936367284,
    6555407793,
    11936367283,
    11936367282,
    11936367281,
    6555407792,
    11936367280,
    6555407791,
    6555407790,
    6555407789,
    6555407810
  ],
  "tags": {
    "amenity": "place_of_worship",
    "building": "church",
    "denomination": "roman_catholic",
    "name": "Nhà thờ Cửa Bắc",
    "name:en": "Cua Bac Church",
    "name:id": "Gereja Katolik Cua Bac",
    "name:zh": "北门天主教堂",
    "name:zh-Hant": "北門天主教堂",
    "religion": "christian",
    "tourism": "attraction",
    "wikidata": "Q1088224",
    "wikimedia_commons": "Category:Cửa Bắc Church",
    "wikipedia": "en:Cửa Bắc Church"
  }
},
{
  "type": "way",
  "id": 700145152,
  "center": {
    "lat": 21.0306532,
    "lon": 105.8370317
  },
  "nodes": [
    6574830147,
    12092832520,
    12092832521,
    12093077297,
    11412666285,
    6574830156,
    6574830126,
    11412666278,
    6574830127,
    12091378718,
    11412666279,
    12092959461,
    6574830154,
    6574830153,
    12091378717,
    12091378716,
    6574830152,
    6574830151,
    12091378704,
    6574830150,
    6574830148,
    11412666296,
    12092959457,
    11412666297,
    11412666277,
    6574830147
  ],
  "tags": {
    "addr:city": "Hà Nội",
    "addr:country": "VN",
    "addr:district": "Quận Ba Đình",
    "addr:housenumber": "66",
    "addr:province": "Hà Nội",
    "addr:street": "Phố Nguyễn Thái Học",
    "addr:subdistrict": "Phường Điện Biên",
    "charge": "40000 VND",
    "email": "btmtvn@vnfam.vn",
    "fee": "yes",
    "museum": "art",
    "name": "Bảo tàng Mỹ thuật Việt Nam",
    "name:de": "Kunstmuseum",
    "name:en": "Vietnam Fine Arts Museum",
    "name:fr": "Musée des beaux-arts du Viêt Nam",
    "name:vi": "Bảo tàng Mỹ thuật Việt Nam",
    "name:vi-Hani": "寶藏美術越南",
    "name:zh": "越南美术馆",
    "name:zh-Hant": "越南美術館",
    "opening_hours": "Mo-Su 08:30-17:00",
    "operator": "Bộ Văn hóa, Thể thao và Du lịch",
    "operator:type": "public/government",
    "phone": "+84 24 3823 3084;+84 32 666 5664",
    "tourism": "museum",
    "website": "http://vnfam.vn/",
    "wikidata": "Q3654706",
    "wikimedia_commons": "Category:Vietnam National Museum of Fine Arts",
    "wikipedia": "vi:Bảo tàng Mỹ thuật Việt Nam"
  }
},
{
  "type": "way",
  "id": 704147278,
  "center": {
    "lat": 21.0234022,
    "lon": 105.8516031
  },
  "nodes": [
    6611718736,
    6611718737,
    6611718082,
    9977090259,
    6611718084,
    6611718081,
    6611718086,
    6611718080,
    6611718079,
    6611718089,
    6611718078,
    6611718736
  ],
  "tags": {
    "addr:housenumber": "36",
    "addr:street": "Lý Thường Kiệt",
    "email": "info@baotangphunu.org.vn",
    "fee": "yes",
    "landuse": "commercial",
    "name": "Bảo tàng Phụ nữ Việt Nam",
    "name:de": "Vietnamesische Frauenmuseum",
    "name:en": "Vietnamese Women's Museum",
    "name:es": "Museo de mujeres del Vietnam",
    "name:fr": "Musée des femmes du Vietnam",
    "name:zh": "越南女士宝物院",
    "opening_hours": "Mo-Su 08:00-17:00",
    "source": "grab_hanoi_2018_t1",
    "tourism": "museum",
    "website": "https://www.baotangphunu.org.vn/",
    "wikidata": "Q10743287",
    "wikimedia_commons": "Category:Vietnamese Women's Museum",
    "wikipedia": "en:Vietnamese Women's Museum"
  }
},
{
  "type": "way",
  "id": 704153616,
  "center": {
    "lat": 21.0266644,
    "lon": 105.8552864
  },
  "nodes": [
    6611773930,
    6611773929,
    8458182556,
    8458182559,
    6611773928,
    6611773927,
    6611773926,
    6611773925,
    6611773924,
    6611773923,
    6611773930
  ],
  "tags": {
    "addr:city": "Hà Nội",
    "addr:district": "Hoàn Kiếm",
    "addr:housenumber": "12",
    "addr:province": "Hà Nội",
    "addr:street": "Phố Ngô Quyền",
    "addr:subdistrict": "Tràng Tiền",
    "building": "yes",
    "building:colour": "#DFC86D",
    "building:levels": "2",
    "name": "Bắc Bộ Phủ",
    "name:en": "Tonkin Palace",
    "roof:colour": "#8C6D63",
    "tourism": "attraction",
    "wikidata": "Q10743330",
    "wikimedia_commons": "Category:State Guest House (Vietnam)",
    "wikipedia": "vi:Nhà khách Chính phủ"
  }
},
{
  "type": "way",
  "id": 704153620,
  "center": {
    "lat": 21.0265128,
    "lon": 105.8537563
  },
  "nodes": [
    6611773980,
    6611773979,
    6611773978,
    6611773977,
    6611773976,
    6611773974,
    6611773973,
    6919616628,
    6611773972,
    6611773971,
    6611773970,
    6611773969,
    6611773968,
    6611773967,
    6611773966,
    6611773965,
    6611773964,
    6611773963,
    6611773980
  ],
  "tags": {
    "addr:city": "Hà Nội",
    "addr:district": "Hoàn Kiếm",
    "addr:housenumber": "75",
    "addr:province": "Hà Nội",
    "addr:street": "Phố Đinh Tiên Hoàng",
    "addr:subdistrict": "Tràng Tiền",
    "building": "yes",
    "name": "Tòa nhà trung tâm Bưu điện Hà Nội",
    "name:en": "Hanoi Post Office",
    "tourism": "attraction",
    "wikidata": "Q113457479",
    "wikimedia_commons": "Category:Hanoi Post Office",
    "wikipedia": "vi:Bưu điện Hà Nội"
  }
},
{
  "type": "way",
  "id": 801710792,
  "center": {
    "lat": 10.7767109,
    "lon": 106.7032186
  },
  "nodes": [
    7498869311,
    7498869310,
    7498869309,
    7498869308,
    7498869307,
    7498869306,
    7499846144,
    7498869305,
    7498869304,
    7498869303,
    7498869302,
    7498869301,
    7498869262,
    7498869300,
    7498869299,
    7498869298,
    7498869297,
    7498869296,
    7498869295,
    7498869247,
    7498869246,
    7498869311
  ],
  "tags": {
    "addr:housenumber": "7",
    "addr:postcode": "71006",
    "addr:street": "Công trường Lam Sơn",
    "air_conditioning": "yes",
    "alt_name": "Nhà hát Lớn",
    "alt_name:en": "Opera House",
    "alt_name:fr": "Opéra de Saïgon",
    "alt_name:id": "Gedung Opera House",
    "alt_name:vi": "Nhà hát Lớn",
    "amenity": "theatre",
    "building": "yes",
    "height": "26 m",
    "name": "Nhà hát Thành phố",
    "name:cjm-Latn": "Sang Adaoh Madin",
    "name:en": "Opera House",
    "name:es": "Opera Saigon",
    "name:fr": "Opéra municipal de Saigon",
    "name:id": "Gedung Teater Kota",
    "name:ru": "Городской Театр",
    "name:vi": "Nhà hát Thành phố",
    "name:vi-Hani": "伽咭城庯",
    "name:zh": "胡志明市大劇院",
    "official_name": "Nhà hát Thành Phố Hồ Chí Minh",
    "official_name:en": "Ho Chi Minh City Municipal Theatre",
    "official_name:zh": "胡志明市大劇院",
    "old_name": "Opéra de Saïgon",
    "old_name:1897-1956": "Opéra de Saigon",
    "old_name:fr": "Opéra de Saïgon",
    "tourism": "attraction",
    "wikidata": "Q1949129",
    "wikipedia": "vi:Nhà hát Thành phố Hồ Chí Minh"
  }
},
{
  "type": "way",
  "id": 801950766,
  "center": {
    "lat": 10.7797710,
    "lon": 106.6990579
  },
  "nodes": [
    7501051654,
    7501051348,
    7501051653,
    7513216551,
    7501051633,
    7501051632,
    7501051631,
    7501051634,
    7501051652,
    7501051651,
    7501051650,
    7501051649,
    7501051648,
    7501051647,
    7501051646,
    7501051645,
    7501051644,
    7501051643,
    7501051642,
    7501051641,
    7501051640,
    7501051639,
    7501051638,
    7501051637,
    7501051636,
    7501051635,
    7513216554,
    7501051654
  ],
  "tags": {
    "addr:city": "Ho Chi Minh City",
    "addr:district": "Quận 1",
    "addr:housenumber": "1",
    "addr:street": "Công Xã Paris",
    "addr:subdistrict": "Bến Nghé",
    "amenity": "place_of_worship",
    "basilica": "minor",
    "building": "church",
    "denomination": "roman_catholic",
    "heritage": "yes",
    "historic": "heritage",
    "name": "Nhà thờ Đức Bà Sài Gòn",
    "name:ar": "كاتدرائية نوتردام",
    "name:cjm": "bh m~K =b_g+R",
    "name:cjm-Latn": "Baha Muk Baigaor",
    "name:de": "Kathedrale Notre Dame von Saigon",
    "name:en": "Saigon Notre Dame Cathedral",
    "name:es": "Basílica de Notre-Dame de Saigón",
    "name:fr": "Cathédrale de l'Immaculée-Conception",
    "name:id": "Basilika Notre-Dame Saigon",
    "name:ja": "サイゴン大聖堂",
    "name:km": "ព្រះវិហារស្ត្រី",
    "name:ko": "노틀담성당",
    "name:ms": "Katedral Notre Dame",
    "name:ru": "Собор Сайгонской Богоматери",
    "name:tl": "Katedral ng Notre Dame",
    "name:uk": "Собор сайгонським Богоматері",
    "name:vi": "Nhà thờ Đức Bà Sài Gòn",
    "name:zh": "圣母教堂",
    "name:zh-Hant": "聖母教堂",
    "official_name": "Vương cung thánh đường Chính tòa Đức Mẹ Vô nhiễm Nguyên tội",
    "official_name:en": "Cathedral Basilica of Our Lady of The Immaculate Conception",
    "official_name:ru": "Базилика Непорочного Зачатия Пресвятой Девы Марии",
    "official_name:vi-Hani": "王宮聖堂正座德媄無染原罪",
    "official_name:zh": "圣母无原罪圣殿主教座堂",
    "religion": "christian",
    "tourism": "attraction",
    "wikidata": "Q428129",
    "wikimedia_commons": "Category:Notre-Dame Cathedral Basilica of Saigon",
    "wikipedia": "vi:Nhà thờ chính tòa Đức Bà Sài Gòn"
  }
},
{
  "type": "way",
  "id": 802157427,
  "center": {
    "lat": 10.7698768,
    "lon": 106.6990696
  },
  "nodes": [
    7503285376,
    7503285375,
    7503285374,
    7503285373,
    7503285372,
    7503285371,
    7503285370,
    7503285369,
    7503285368,
    7503285367,
    7503285366,
    7503285365,
    7503285364,
    7503285363,
    7503285362,
    7503285361,
    7503285360,
    7503285359,
    7503285358,
    7503285357,
    7503285356,
    7503285355,
    7503285354,
    7503285353,
    7503285352,
    7503285351,
    7503285350,
    7503285349,
    7503285376
  ],
  "tags": {
    "addr:housenumber": "97A",
    "addr:postcode": "71010",
    "addr:street": "Phó Ðức Chính",
    "building": "yes",
    "building:levels": "3",
    "fee": "yes",
    "name": "Bảo tàng Mỹ thuật Thành phố Hồ Chí Minh",
    "name:de": "Museum der bildenden Künste",
    "name:en": "Museum of Fine Arts",
    "name:es": "Museo de Bellas Artes",
    "name:id": "Muzium Seni Rupa",
    "name:it": "Museo di Belle Arti",
    "name:ru": "Хошиминский музей изобразительных искусств",
    "name:vi": "Bảo tàng Mỹ thuật",
    "name:zh": "胡志明美术馆",
    "name:zh-Hant": "胡志明市美術館",
    "operator:type": "government",
    "tourism": "museum",
    "wikidata": "Q2756351",
    "wikimedia_commons": "Category:Ho Chi Minh City Museum of Fine Arts",
    "wikipedia": "en:Ho Chi Minh City Museum of Fine Arts"
  }
},
{
  "type": "way",
  "id": 808022726,
  "center": {
    "lat": 10.7682684,
    "lon": 106.7068035
  },
  "nodes": [
    7556047115,
    7556047101,
    7556047091,
    7556047114,
    7556046983,
    7556047092,
    7556047113,
    7556047100,
    7556047111,
    7556047112,
    7556047115
  ],
  "tags": {
    "building": "yes",
    "name": "Bảo tàng Hồ Chí Minh",
    "name:en": "Ho Chi Minh Museum",
    "name:fr": "Musée de Ho Chi Minh",
    "name:id": "Muzium Presiden Ho Chi Minh",
    "name:ms": "Muzium Presiden Ho Chi Minh",
    "name:ru": "Музей Хо Ши Мина",
    "name:vi": "Bảo tàng Hồ Chí Minh",
    "name:zh": "胡志明主席宝物院",
    "name:zh-Hant": "胡志明主席寶物院",
    "old_name": "Trụ sở công ty Messageries maritimes",
    "old_name:en": "Headquarters of Messageries maritimes",
    "opening_hours": "Mo,Fr 08:00-12:00; Tu-Th,Sa,Su 08:00-12:00,14:00-16:30",
    "tourism": "museum",
    "wikidata": "Q10743440",
    "wikimedia_commons": "Category:Dragon House (Ho Chi Minh City)",
    "wikipedia": "en:Dragon House (Ho Chi Minh City)"
  }
},
{
  "type": "way",
  "id": 921987266,
  "center": {
    "lat": 21.1391333,
    "lon": 105.5044922
  },
  "nodes": [
    8559636463,
    8559636462,
    8559636461,
    8559636460,
    8559636459,
    8559636457,
    8559636455,
    6562586276,
    11081212199,
    11081071442,
    11081212198,
    8559636453,
    8559636452,
    8559636450,
    8559636449,
    8559636448,
    8559636447,
    8559636445,
    8559636443,
    8559636441,
    8559636440,
    11081212201,
    11081072948,
    8559636439,
    8559636438,
    8559636463
  ],
  "tags": {
    "access": "yes",
    "castle_type": "defensive",
    "historic": "castle",
    "historic:civilization": "vietnamese",
    "name": "Thành cổ Sơn Tây",
    "name:en": "Son Tay Ancient Citadel",
    "start_date": "1822",
    "tourism": "attraction",
    "wikidata": "Q4240280",
    "wikipedia": "vi:Thành cổ Sơn Tây"
  }
},
{
  "type": "way",
  "id": 1019050231,
  "center": {
    "lat": 21.0355531,
    "lon": 105.8260825
  },
  "nodes": [
    2564044312,
    9399445455,
    9399445456,
    9399445457,
    9399445458,
    9399445459,
    9399445460,
    9399445461,
    9399445450,
    2564044305,
    2564044306,
    2564044307,
    9399445451,
    9399445452,
    2564044308,
    9399445453,
    2564044309,
    9399445454,
    2564044310,
    9399445447,
    9399445446,
    2564044311,
    2564044312
  ],
  "tags": {
    "building": "yes",
    "name": "Bảo tàng Chiến thắng B52",
    "name:en": "B52 Victory Museum",
    "tourism": "museum",
    "wikidata": "Q10743280"
  }
},
{
  "type": "way",
  "id": 1148571536,
  "center": {
    "lat": 21.0117597,
    "lon": 105.7548289
  },
  "nodes": [
    10686264978,
    12303837947,
    10686264980,
    10686264981,
    10686264982,
    10686264983,
    10686276807,
    10686264984,
    10686276809,
    10686276808,
    10686264985,
    10686264986,
    10686276810,
    10686264987,
    10686276811,
    10686264988,
    10686276812,
    10686264989,
    10686264990,
    10686276813,
    10686264991,
    10686264992,
    10686264993,
    10686264994,
    10686264995,
    10686264996,
    10686264997,
    10686264978
  ],
  "tags": {
    "addr:city": "Hà Nội",
    "addr:district": "Nam Từ Liêm",
    "addr:housenumber": "Km 6+500",
    "addr:province": "Hà Nội",
    "addr:street": "Đại lộ Thăng Long",
    "addr:subdistrict": "Tây Mỗ",
    "landuse": "military",
    "museum": "history",
    "name": "Bảo tàng Lịch sử Quân sự Việt Nam",
    "name:en": "Vietnam Military History Museum",
    "name:es": "Museo de Historia Militar de Vietnam",
    "name:ja": "ベトナム軍事歴史博物館",
    "name:ka": "ვიეტნამის სამხედრო ისტორიის მუზეუმი",
    "name:ko": "베트남 군사역사박물관",
    "name:ru": "Вьетнамский музей военной истории",
    "name:vi": "Bảo tàng Lịch sử Quân sự Việt Nam",
    "name:zh": "越南军事历史博物馆",
    "opening_hours": "Tu-Th,Sa-Su,PH 08:00-11:30,13:00-16:30",
    "operator": "Tổng cục Chính trị",
    "operator:type": "military",
    "start_date": "2024-11-01",
    "tourism": "museum",
    "website": "https://baotanglichsuquansu.vn/",
    "wikidata": "Q1048785",
    "wikipedia": "vi:Bảo tàng Lịch sử Quân sự Việt Nam"
  }
},
{
  "type": "way",
  "id": 1162603502,
  "center": {
    "lat": 21.0369875,
    "lon": 105.8358029
  },
  "nodes": [
    11289008045,
    12062085630,
    11289008046,
    13089508850,
    13089508842,
    13089508849,
    1388478403,
    13089508865,
    13089508863,
    13089508861,
    12063111007,
    6549314171,
    6549314090,
    6549314092,
    6549314094,
    6549314096,
    6549314098,
    6549314100,
    6549314102,
    6549314104,
    6549314106,
    6549314108,
    6549314110,
    6549314112,
    6549314114,
    6549314116,
    6549314118,
    6549314120,
    6549314122,
    6549314124,
    6549314126,
    6549314128,
    6549314130,
    6549314132,
    6549314134,
    6549314136,
    6549314138,
    6549314140,
    6549314142,
    6549314144,
    6549314146,
    6549314172,
    6549314078,
    6549314081,
    6549314082,
    6549314085,
    6549314086,
    6549314089,
    6549314173,
    6549314174,
    311553802,
    10161188214,
    11804224401,
    11804224402,
    11804224406,
    11804224403,
    12063111014,
    11296032380,
    4530855109,
    12063111015,
    4530855108,
    12063230886,
    12063230887,
    12063230890,
    12063230891,
    12063230894,
    12063230900,
    12063230903,
    12063230896,
    12063230899,
    12063230904,
    12063230895,
    12073581248,
    12063230937,
    12063230940,
    12063230933,
    12063230936,
    12063230929,
    12063230932,
    12063230925,
    12063230928,
    12063230921,
    12063230924,
    12063230885,
    6549313919,
    4530855107,
    12063089485,
    311553800,
    421496291,
    11289008045
  ],
  "tags": {
    "area:highway": "pedestrian",
    "lit": "yes",
    "name": "Quảng trường Ba Đình",
    "name:cy": "Sgwâr Ba Dinh",
    "name:de": "Ba Dinh-Platz",
    "name:en": "Ba Dinh Square",
    "name:es": "Plaza Ba Dinh",
    "name:fr": "Place Ba Dinh",
    "name:id": "Alun-alun Ba Dinh",
    "name:ja": "バーディン広場",
    "name:ko": "바딘 광장",
    "name:ms": "Dataran Ba Dinh",
    "name:ru": "Площадь Бадинь",
    "name:tr": "Ba Dinh Meydanı",
    "name:vi": "Quảng trường Ba Đình",
    "name:vi-Hani": "廣場𠀧亭",
    "name:zh": "巴亭广场",
    "name:zh-Hans": "巴亭广场",
    "name:zh-Hant": "巴亭廣場",
    "old_name": "Rond point Puginier",
    "old_name:-1945": "Rond point Puginier",
    "place": "square",
    "tourism": "attraction",
    "wikidata": "Q2234574",
    "wikimedia_commons": "Category:Ba Đình Square",
    "wikipedia": "vi:Quảng trường Ba Đình"
  }
},
{
  "type": "way",
  "id": 1162904824,
  "center": {
    "lat": 11.3825596,
    "lon": 106.1723549
  },
  "nodes": [
    10815216281,
    12788184073,
    12788184074,
    10815216282,
    10815216283,
    12788184072,
    12788184071,
    12788184070,
    12788184069,
    12788184068,
    10815216284,
    10815216285,
    10815216286,
    10815216287,
    10815216288,
    10815216289,
    10815216290,
    10815216281
  ],
  "tags": {
    "alt_name": "Sun World BaDen Mountain",
    "name": "Khu du lịch Núi Bà Đen",
    "tourism": "theme_park",
    "website": "https://badenmountain.sunworld.vn",
    "wikidata": "Q116170750",
    "wikipedia": "vi:Khu du lịch Núi Bà Đen"
  }
},
{
  "type": "way",
  "id": 1172897446,
  "center": {
    "lat": 16.4566343,
    "lon": 107.5983094
  },
  "nodes": [
    10897929811,
    10897929812,
    10897929813,
    10897929814,
    10897929811
  ],
  "tags": {
    "access": "private",
    "addr:city": "Huế",
    "addr:housenumber": "179",
    "addr:province": "Huế",
    "addr:street": "Phan Đình Phùng",
    "addr:subdistrict": "Phú Nhuận",
    "building": "yes",
    "building:architecture": "french_colonial",
    "castle_type": "palace",
    "historic": "castle",
    "name": "Cung An Định",
    "name:en": "An Dinh Palace",
    "wikidata": "Q10751137",
    "wikipedia": "vi:Cung An Định"
  }
},
{
  "type": "way",
  "id": 1206331027,
  "center": {
    "lat": 20.9166342,
    "lon": 105.8744443
  },
  "nodes": [
    11178353462,
    11178353467,
    11178353468,
    11178353469,
    11178353470,
    11178353471,
    11178353472,
    11178353473,
    11178353474,
    11178353475,
    11178353476,
    11178353456,
    11178353457,
    11178353458,
    11178353450,
    11178353451,
    11178353452,
    11178353459,
    11178353460,
    11178353461,
    11178353462
  ],
  "tags": {
    "building": "yes",
    "name": "Bảo tàng Đặc công",
    "tourism": "museum",
    "wikidata": "Q18456111",
    "wikipedia": "vi:Bảo tàng Đặc công (Việt Nam)"
  }
},
{
  "type": "way",
  "id": 1215518862,
  "center": {
    "lat": 21.0329709,
    "lon": 105.8401599
  },
  "nodes": [
    6544877855,
    6544877854,
    1961611577,
    1961611623,
    1961611545,
    12061058542,
    11261946446,
    12061058541,
    10009609259,
    6544877847,
    12061058540,
    6544877846,
    1961611583,
    12061058562,
    12061058563,
    12065665448,
    1961611495,
    1961611568,
    12061058554,
    1961611634,
    11262023516,
    1961611535,
    8830835284,
    11262023508,
    11262023511,
    1955238044,
    1955238042,
    10845272803,
    6544877855
  ],
  "tags": {
    "addr:city": "Hà Nội",
    "addr:country": "VN",
    "addr:district": "Quận Ba Đình",
    "addr:housenumber": "28A",
    "addr:province": "Hà Nội",
    "addr:street": "Đường Điện Biên Phủ",
    "addr:subdistrict": "Phường Điện Biên",
    "description:fr": "Passer par l'entrée du Highlands coffee pour accéder gratuitement au musée",
    "museum": "military",
    "name": "Bảo tàng Lịch sử Quân sự Việt Nam",
    "name:cy": "Amgueddfa Hanes Milwrol Fietnam",
    "name:en": "Vietnam Military History Museum",
    "name:ja": "ベトナム軍事歴史博物館",
    "name:vi": "Bảo tàng Lịch sử Quân sự Việt Nam",
    "name:zh": "越南军事历史博物馆",
    "name:zh-Hans": "越南军事历史博物馆",
    "name:zh-Hant": "越南軍事歷史博物館",
    "opening_hours": "Tu-Su 08:00-11:30, 14:00-16:00",
    "operator": "Tổng cục Chính trị",
    "operator:type": "military",
    "tourism": "museum",
    "website": "https://www.btlsqsvn.org.vn/",
    "wikidata": "Q1048785",
    "wikipedia": "vi:Bảo tàng Lịch sử Quân sự Việt Nam"
  }
},
{
  "type": "way",
  "id": 1219524639,
  "center": {
    "lat": 20.9992740,
    "lon": 105.8292331
  },
  "nodes": [
    11299990093,
    11299990094,
    11299990095,
    11299990096,
    7842712601,
    11299990092,
    7842712604,
    11299990093
  ],
  "tags": {
    "addr:city": "Hà Nội",
    "addr:country": "VN",
    "addr:district": "Thanh Xuân",
    "addr:housenumber": "173C",
    "addr:province": "Hà Nội",
    "addr:street": "Đường Trường Chinh",
    "addr:subdistrict": "Khương Mai",
    "fee": "yes",
    "landuse": "military",
    "museum": "military",
    "name": "Bảo tàng Phòng không - Không quân",
    "opening_hours": "Mo-Su 08:00-11:00,13:00-16:00; Fr off",
    "operator": "Quân chủng Phòng không - Không quân Việt Nam",
    "operator:type": "military",
    "tourism": "museum",
    "wikidata": "Q7928536",
    "wikimedia_commons": "Category:Vietnamese Air Force Museum in Hanoi",
    "wikipedia": "vi:Bảo tàng Phòng không - Không quân (Việt Nam)"
  }
},
{
  "type": "way",
  "id": 1219991538,
  "center": {
    "lat": 21.0263362,
    "lon": 105.8533130
  },
  "nodes": [
    11304265660,
    11304265661,
    11304265662,
    11304265663,
    11304265660
  ],
  "tags": {
    "building": "tower",
    "building:levels": "3",
    "man_made": "tower",
    "name": "Tháp Hòa Phong",
    "name:en": "Hoa Phong Tower",
    "name:zh": "和風塔",
    "tourism": "attraction",
    "tower:construction": "brick",
    "tower:type": "monument",
    "wikidata": "Q10825843",
    "wikimedia_commons": "Category:Hoa Phong Tower",
    "wikipedia": "vi:Tháp Hòa Phong"
  }
},
{
  "type": "way",
  "id": 1247135450,
  "center": {
    "lat": 21.0299738,
    "lon": 105.8431281
  },
  "nodes": [
    12071678443,
    5412492578,
    12071595973,
    11593962439,
    5412492579,
    5412492580,
    12071777091,
    12071595971,
    12071777094,
    12071777085,
    12071777086,
    11237754205,
    12071777082,
    12071595970,
    12071777079,
    12071777071,
    11237754206,
    12071776978,
    12071776979,
    12071595977,
    12071776985,
    12071776987,
    12071777075,
    12071777057,
    11237754208,
    12071777054,
    11237754209,
    11594082867,
    11594082865,
    12089170238,
    12089170222,
    11594082863,
    11594082862,
    11594082857,
    11594082858,
    11594082851,
    11594082852,
    11594082853,
    11594082854,
    11594082855,
    3942923749,
    11594082843,
    11594082844,
    11594082845,
    11594082846,
    11594082847,
    11594082848,
    11594082849,
    11594082850,
    11647334521,
    11594082859,
    11594082856,
    11594082861,
    12089170208,
    11594082864,
    12089176475,
    11594133872,
    12696315422,
    11594082868,
    11237754196,
    12071662686,
    12071662687,
    12071595985,
    12073089633,
    12073089637,
    12071662695,
    12071662694,
    12071662691,
    12071662698,
    12071662700,
    12071662702,
    12071662704,
    12071662706,
    11237754195,
    12071662709,
    12071662711,
    12071662713,
    12071662715,
    12071662717,
    12071595978,
    12071662720,
    11237754194,
    12071662724,
    12071662726,
    12071595979,
    12071662729,
    12071662731,
    12071662734,
    12071595980,
    12071662737,
    12071662739,
    12071662741,
    11237754193,
    12071662744,
    12071662746,
    12071662750,
    12071662752,
    12071662754,
    11237754192,
    12071662757,
    12071662758,
    12071662761,
    12071662763,
    12071662765,
    12073037855,
    12071673075,
    12071595981,
    12073037852,
    12071673077,
    12071673080,
    12071673082,
    12071673084,
    12071673086,
    12071673088,
    12071673090,
    12071673092,
    12071673095,
    12071673097,
    12071673099,
    12071673101,
    12071673103,
    12071673105,
    12071673107,
    12071673109,
    12071673111,
    12071673113,
    11237754191,
    12071777095,
    12071777096,
    12071678443
  ],
  "tags": {
    "access": "private",
    "landuse": "railway",
    "name": "Phố đường tàu Hà Nội",
    "name:en": "Hanoi Train Street",
    "note": "To understand why this neighborhood came to be, watch this excellent video about the train street: The People Who Hate Us - Rare Earth, and read this news article: Cuộc sống hơn 60 năm ở xóm đường tàu – VnExpress",
    "operator": "Tổng Công ty Đường sắt Việt Nam",
    "tourism": "attraction",
    "wikidata": "Q85788921",
    "wikipedia": "en:Hanoi Train Street"
  }
},
{
  "type": "way",
  "id": 1252772822,
  "center": {
    "lat": 11.0433035,
    "lon": 106.6325423
  },
  "nodes": [
    11644963486,
    11644963487,
    11644963488,
    11644963489,
    11644963490,
    11644963491,
    11644963492,
    11644963486
  ],
  "tags": {
    "attraction": "roller_coaster",
    "name": "Tàu Lộn Vòng Siêu Tốc",
    "tourism": "attraction",
    "wikidata": "Q7361011"
  }
},
{
  "type": "way",
  "id": 1252774078,
  "center": {
    "lat": 20.9540600,
    "lon": 107.0479012
  },
  "nodes": [
    11644967770,
    11644967771,
    11644967772,
    11644967773,
    11644967774,
    11644967775,
    11644967776,
    11644967777,
    11644967778,
    11644967779,
    11644967780,
    11644967781,
    11644967782,
    11644967770
  ],
  "tags": {
    "attraction": "roller_coaster",
    "name": "Phi Long Thần Tốc",
    "name:en": "Dragon's Run",
    "name:vi": "Phi Long Thần Tốc",
    "tourism": "attraction",
    "wikidata": "Q28563538"
  }
},
{
  "type": "way",
  "id": 1360680180,
  "center": {
    "lat": 15.7649752,
    "lon": 108.1252540
  },
  "nodes": [
    12596159324,
    12596159325,
    12596159326,
    12596159327,
    12596159324
  ],
  "tags": {
    "area": "yes",
    "historic": "ruins",
    "name": "F1",
    "ruins": "building",
    "wikidata": "Q132457216"
  }
},
{
  "type": "way",
  "id": 1360680181,
  "center": {
    "lat": 15.7629656,
    "lon": 108.1238494
  },
  "nodes": [
    12596159328,
    12596159329,
    12596159331,
    12596159330,
    12596159328
  ],
  "tags": {
    "area": "yes",
    "historic": "ruins",
    "name": "B3",
    "wikidata": "Q132456994"
  }
},
{
  "type": "way",
  "id": 1360680182,
  "center": {
    "lat": 15.7632622,
    "lon": 108.1240516
  },
  "nodes": [
    12596159332,
    12596159333,
    12596159334,
    12596159335,
    12596159336,
    12596159337,
    12596159338,
    12596159339,
    12596159340,
    12596159341,
    12596159342,
    12596159343,
    12596159332
  ],
  "tags": {
    "area": "yes",
    "historic": "ruins",
    "name": "C1",
    "wikidata": "Q132457191"
  }
},
{
  "type": "way",
  "id": 1362974362,
  "center": {
    "lat": 20.2828485,
    "lon": 105.9017497
  },
  "nodes": [
    12619268579,
    12619371720,
    12619268577,
    12619371719,
    12619371718,
    12619371717,
    12619371716,
    12619371715,
    12619371714,
    12619371713,
    12619371712,
    12619268578,
    12619371711,
    12619371710,
    12619371709,
    12619371708,
    12619268576,
    12619268575,
    12619268574,
    12619371707,
    12619268573,
    12619371706,
    12619268572,
    12635835419,
    12619268571,
    12619268570,
    12619268569,
    12619371705,
    12619371704,
    12619371703,
    12619371702,
    12619371701,
    12619268600,
    12619268599,
    12619268598,
    12619268597,
    12619268596,
    12619268595,
    12619268594,
    12619268593,
    12619268592,
    12619268591,
    12619268590,
    12619268589,
    12619268588,
    12619268587,
    12619268586,
    12619268585,
    12619268584,
    12619268583,
    12619268582,
    12619268581,
    12619268580,
    12619268579
  ],
  "tags": {
    "historic": "city",
    "name": "Cố đô Hoa Lư",
    "name:en": "Hoa Lu ancient capital",
    "name:zh": "華閭",
    "tourism": "attraction",
    "wikidata": "Q2421186",
    "wikipedia": "vi:Cố đô Hoa Lư"
  }
},
{
  "type": "way",
  "id": 1430586858,
  "center": {
    "lat": 10.2778009,
    "lon": 105.6079257
  },
  "nodes": [
    13149791063,
    13149791064,
    13149791065,
    13149791066,
    13149791067,
    13149791068,
    13149791069,
    13149791070,
    13149791071,
    13149791072,
    13149791073,
    13149791074,
    13149791075,
    13149791076,
    13149791077,
    13149791078,
    13149791079,
    13149791080,
    13149791081,
    13149791082,
    13149791083,
    13149791084,
    13149791085,
    13149791086,
    13149791087,
    13149791088,
    13149791089,
    13149791090,
    13149791091,
    13149791092,
    13149791093,
    13149791094,
    13149791095,
    13149791096,
    13149791097,
    13149791063
  ],
  "tags": {
    "addr:city": "Xã Lai Vung",
    "addr:province": "Đồng Tháp",
    "addr:street": "Rạch Cua Đinh",
    "area": "yes",
    "name": "Khu du lịch Quýt Hồng Lai Vung",
    "tourism": "attraction",
    "wikidata": "Q65770260",
    "wikipedia": "vi:Quýt hồng"
  }
},
{
  "type": "relation",
  "id": 8552348,
  "center": {
    "lat": 16.0017096,
    "lon": 108.2596132
  },
  "members": [
    {
      "type": "way",
      "ref": 208064910,
      "role": "outer"
    },
    {
      "type": "way",
      "ref": 208064909,
      "role": "outer"
    },
    {
      "type": "way",
      "ref": 208064912,
      "role": "outer"
    },
    {
      "type": "way",
      "ref": 208064911,
      "role": "outer"
    },
    {
      "type": "way",
      "ref": 208064913,
      "role": "outer"
    }
  ],
  "tags": {
    "name": "Ngũ Hành Sơn",
    "name:en": "Marble Mountains",
    "name:es": "Montañas de Mármol",
    "name:ko": "오행산(마블마운틴)",
    "name:vi": "Ngũ Hành Sơn",
    "natural": "wood",
    "tourism": "attraction",
    "type": "multipolygon",
    "website": "https://nguhanhson.org",
    "wikidata": "Q6755207",
    "wikipedia": "vi:Ngũ Hành Sơn"
  }
},
{
  "type": "relation",
  "id": 17758150,
  "center": {
    "lat": 10.7879621,
    "lon": 106.7049183
  },
  "members": [
    {
      "type": "way",
      "ref": 165567746,
      "role": "outer"
    },
    {
      "type": "way",
      "ref": 1295638398,
      "role": "inner"
    },
    {
      "type": "way",
      "ref": 1295638400,
      "role": "inner"
    },
    {
      "type": "way",
      "ref": 1295638399,
      "role": "inner"
    }
  ],
  "tags": {
    "addr:housenumber": "2",
    "addr:street": "Nguyễn Thị Minh Khai",
    "building": "yes",
    "museum": "history",
    "name": "Bảo tàng Lịch sử Thành phố Hồ Chí Minh",
    "name:en": "History Museum of Ho Chi Minh City",
    "name:id": "Muzium Serajah Vietnam",
    "name:vi": "Bảo tàng Lịch sử Thành phố Hồ Chí Minh",
    "name:vi-Hani": "寶藏歷史越南",
    "opening_hours": "Tu-Su 08:00-11:30, 13:00-17:00",
    "start_date": "1929",
    "tourism": "museum",
    "type": "multipolygon",
    "website": "http://www.baotanglichsutphcm.com.vn/en-US/sightseeing/policy",
    "wikidata": "Q6941045",
    "wikimedia_commons": "Category:Ho Chi Minh City Museum of History",
    "wikipedia": "vi:Bảo tàng Lịch sử Thành phố Hồ Chí Minh"
  }
},
{
  "type": "relation",
  "id": 17877970,
  "center": {
    "lat": 21.0360358,
    "lon": 105.8386914
  },
  "members": [
    {
      "type": "way",
      "ref": 695966239,
      "role": "outer"
    },
    {
      "type": "way",
      "ref": 1303926974,
      "role": "outer"
    }
  ],
  "tags": {
    "alt_name": "Đài tưởng niệm Bắc Sơn",
    "alt_name:en": "Bac Son Monument",
    "alt_name:id": "Monumen Bac Son",
    "building": "yes",
    "height": "12.6",
    "historic": "monument",
    "name": "Đài tưởng niệm các Anh hùng liệt sĩ",
    "name:ar": "نصب الأبطال والشهداء",
    "name:en": "Monument to Heroes and Martyrs",
    "name:fr": "Monument aux Héros",
    "name:id": "Monumen Pahlawan dan Martir",
    "name:km": "វិមាននៃវីរបុរសនិងពួកបរិសុទ្ធ",
    "name:ko": "영웅렬사기념탑",
    "name:ru": "Памятник героям и мученикам",
    "name:th": "อนุสาวรีย์วีรบุรุษและผู้พลีชีพ",
    "name:zh": "英雄烈士想念台",
    "start_date": "1994-05-07",
    "type": "multipolygon",
    "wikidata": "Q7928570",
    "wikimedia_commons": "Category:Vietnam War Memorial, Hanoi",
    "wikipedia": "en:Memorial to the Revolutionary Martyrs"
  }
}

  ]
}
